{"type":"FeatureCollection","name":"Calgary Tower curb zones","source":"https://data.calgary.ca/d/rhkg-vwwp","retrieved_at":"2026-09-23T00:27:48.252309+00:00","bounds":[-114.06565,51.04331,-114.06062,51.04561],"features":[{"type":"Feature","id":17149,"properties":{"OBJECTID":17149,"BLOCK_SIDE":"W","ADDRESS_DESC":"1 St SW ,  Fr 8 Av SW To 9 Av SW","PARKING_ZONE":2494,"ZONE_TYPE":"Loading Zone","STALL_TYPE":"Parallel","ZONE_CAP":2,"STATUS":"Active","PRICE_ZONE":"4c","PARKING_RESTRICT_TIME":"07:00 - 08:30 , 15:30 - 18:00","PARKING_RESTRICT_TYPE":"AM&PM","MAX_TIME":20,"ENFORCEABLE_TIME":"0001-2359 MON-SUN","NO_STOPPING":null,"NO_PARKING":null,"COMMENTS":null},"geometry":{"type":"LineString","coordinates":[[-114.065602687526,51.0454136854081],[-114.065596298584,51.0455034928382]]}},{"type":"Feature","id":16331,"properties":{"OBJECTID":16331,"BLOCK_SIDE":"N","ADDRESS_DESC":"9 Av SE ,  Fr 1 St SE To Centre St S","PARKING_ZONE":2525,"ZONE_TYPE":"Parking Zone","STALL_TYPE":"Parallel","ZONE_CAP":7,"STATUS":"Active","PRICE_ZONE":"4c","PARKING_RESTRICT_TIME":"none","PARKING_RESTRICT_TYPE":"none","MAX_TIME":120,"ENFORCEABLE_TIME":"0710-1750 MON-FRI, 0910-1750 SAT","NO_STOPPING":null,"NO_PARKING":null,"COMMENTS":null},"geometry":{"type":"LineString","coordinates":[[-114.061808147141,51.0446855228696],[-114.061794375382,51.0446853108019],[-114.061324737357,51.0446721095098],[-114.061313234322,51.0446717865203],[-114.061251279425,51.0446677088972],[-114.061190530624,51.0446590269667],[-114.061169412708,51.0446551643439]]}},{"type":"Feature","id":95,"properties":{"OBJECTID":95,"BLOCK_SIDE":"W","ADDRESS_DESC":"Centre St S ,  Fr 8 Av SW To 9 Av SW","PARKING_ZONE":2508,"ZONE_TYPE":"Parking Zone","STALL_TYPE":"Parallel","ZONE_CAP":5,"STATUS":"Active","PRICE_ZONE":"4c","PARKING_RESTRICT_TIME":"none","PARKING_RESTRICT_TYPE":"none","MAX_TIME":120,"ENFORCEABLE_TIME":"0910-1750 MON-SAT","NO_STOPPING":null,"NO_PARKING":null,"COMMENTS":null},"geometry":{"type":"LineString","coordinates":[[-114.063161011742,51.045131190291],[-114.063139553486,51.0454311425599]]}},{"type":"Feature","id":719,"properties":{"OBJECTID":719,"BLOCK_SIDE":"N","ADDRESS_DESC":"10 Av SE ,  Fr Centre St S To 1 St SE","PARKING_ZONE":2939,"ZONE_TYPE":"Parking Zone","STALL_TYPE":"Parallel","ZONE_CAP":11,"STATUS":"Active","PRICE_ZONE":"14","PARKING_RESTRICT_TIME":"none","PARKING_RESTRICT_TYPE":"none","MAX_TIME":120,"ENFORCEABLE_TIME":"0910-1750 MON-FRI","NO_STOPPING":null,"NO_PARKING":null,"COMMENTS":null},"geometry":{"type":"LineString","coordinates":[[-114.062278171329,51.0433550001257],[-114.061751082711,51.043339979258]]}},{"type":"Feature","id":18890,"properties":{"OBJECTID":18890,"BLOCK_SIDE":"E","ADDRESS_DESC":"Centre St S ,  Fr 8 Av SE To 9 Av SE","PARKING_ZONE":2529,"ZONE_TYPE":"Taxi Zone","STALL_TYPE":"Parallel","ZONE_CAP":1,"STATUS":"Active","PRICE_ZONE":"4c","PARKING_RESTRICT_TIME":"none","PARKING_RESTRICT_TYPE":"none","MAX_TIME":1440,"ENFORCEABLE_TIME":"0001-2359 MON-SUN","NO_STOPPING":null,"NO_PARKING":null,"COMMENTS":null},"geometry":{"type":"LineString","coordinates":[[-114.062926226732,51.0453457256813],[-114.062931700916,51.0452684910311]]}},{"type":"Feature","id":868,"properties":{"OBJECTID":868,"BLOCK_SIDE":"N","ADDRESS_DESC":"10 Av SW ,  Fr Centre St S To 1 St SW","PARKING_ZONE":2936,"ZONE_TYPE":"Parking Zone","STALL_TYPE":"Parallel","ZONE_CAP":3,"STATUS":"Active","PRICE_ZONE":"14","PARKING_RESTRICT_TIME":"none","PARKING_RESTRICT_TYPE":"none","MAX_TIME":120,"ENFORCEABLE_TIME":"0910-1750 MON-FRI","NO_STOPPING":null,"NO_PARKING":null,"COMMENTS":null},"geometry":{"type":"LineString","coordinates":[[-114.063709692493,51.0433957836486],[-114.063421930039,51.0433875868861]]}},{"type":"Feature","id":845,"properties":{"OBJECTID":845,"BLOCK_SIDE":"W","ADDRESS_DESC":"1 St SE ,  Fr 8 Av SE To 9 Av SE","PARKING_ZONE":2522,"ZONE_TYPE":"Parking Zone","STALL_TYPE":"Parallel","ZONE_CAP":2,"STATUS":"Active","PRICE_ZONE":"4c","PARKING_RESTRICT_TIME":"none","PARKING_RESTRICT_TYPE":"none","MAX_TIME":30,"ENFORCEABLE_TIME":"0710-1750 MON-FRI, 0910-1750 SAT","NO_STOPPING":null,"NO_PARKING":null,"COMMENTS":null},"geometry":{"type":"LineString","coordinates":[[-114.060766576281,51.0451805682422],[-114.060763531239,51.0452238895554],[-114.060757744267,51.0452577254273],[-114.060745242348,51.0452908321255]]}},{"type":"Feature","id":1274,"properties":{"OBJECTID":1274,"BLOCK_SIDE":"N","ADDRESS_DESC":"10 Av SE ,  Fr Centre St S To 1 St SE","PARKING_ZONE":2941,"ZONE_TYPE":"Parking Zone","STALL_TYPE":"Parallel","ZONE_CAP":3,"STATUS":"Active","PRICE_ZONE":"14","PARKING_RESTRICT_TIME":"none","PARKING_RESTRICT_TYPE":"none","MAX_TIME":20,"ENFORCEABLE_TIME":"0910-1750 MON-FRI","NO_STOPPING":null,"NO_PARKING":null,"COMMENTS":null},"geometry":{"type":"LineString","coordinates":[[-114.06130268944,51.0433271990568],[-114.061009229243,51.0433188339314]]}},{"type":"Feature","id":17007,"properties":{"OBJECTID":17007,"BLOCK_SIDE":"W","ADDRESS_DESC":"Centre St S ,  Fr 8 Av SW To 9 Av SW","PARKING_ZONE":2510,"ZONE_TYPE":"Loading Zone","STALL_TYPE":"Parallel","ZONE_CAP":3,"STATUS":"Active","PRICE_ZONE":"4c","PARKING_RESTRICT_TIME":"none","PARKING_RESTRICT_TYPE":"none","MAX_TIME":20,"ENFORCEABLE_TIME":"0001-2359 MON-SUN","NO_STOPPING":null,"NO_PARKING":null,"COMMENTS":null},"geometry":{"type":"LineString","coordinates":[[-114.06318540393,51.0447731141862],[-114.063185722685,51.0447757569959],[-114.063185751278,51.0447852438475],[-114.063176092416,51.0449204007387]]}},{"type":"Feature","id":777,"properties":{"OBJECTID":777,"BLOCK_SIDE":"N","ADDRESS_DESC":"10 Av SW ,  Fr Centre St S To 1 St SW","PARKING_ZONE":2936,"ZONE_TYPE":"Parking Zone","STALL_TYPE":"Parallel","ZONE_CAP":3,"STATUS":"Active","PRICE_ZONE":"14","PARKING_RESTRICT_TIME":"none","PARKING_RESTRICT_TYPE":"none","MAX_TIME":120,"ENFORCEABLE_TIME":"0910-1750 MON-FRI","NO_STOPPING":null,"NO_PARKING":null,"COMMENTS":null},"geometry":{"type":"LineString","coordinates":[[-114.064839032682,51.0434279454782],[-114.064612525635,51.0434214949207]]}},{"type":"Feature","id":734,"properties":{"OBJECTID":734,"BLOCK_SIDE":"N","ADDRESS_DESC":"10 Av SE ,  Fr Centre St S To 1 St SE","PARKING_ZONE":2939,"ZONE_TYPE":"Parking Zone","STALL_TYPE":"Parallel","ZONE_CAP":11,"STATUS":"Active","PRICE_ZONE":"14","PARKING_RESTRICT_TIME":"none","PARKING_RESTRICT_TYPE":"none","MAX_TIME":120,"ENFORCEABLE_TIME":"0910-1750 MON-FRI","NO_STOPPING":null,"NO_PARKING":null,"COMMENTS":null},"geometry":{"type":"LineString","coordinates":[[-114.062936407957,51.0433737552242],[-114.062528982336,51.0433621470027]]}},{"type":"Feature","id":17150,"properties":{"OBJECTID":17150,"BLOCK_SIDE":"E","ADDRESS_DESC":"Centre St S ,  Fr 8 Av SE To 9 Av SE","PARKING_ZONE":2530,"ZONE_TYPE":"Loading Zone","STALL_TYPE":"Parallel","ZONE_CAP":5,"STATUS":"Active","PRICE_ZONE":"4c","PARKING_RESTRICT_TIME":"none","PARKING_RESTRICT_TYPE":"none","MAX_TIME":20,"ENFORCEABLE_TIME":"0001-2359 MON-SUN","NO_STOPPING":null,"NO_PARKING":null,"COMMENTS":null},"geometry":{"type":"LineString","coordinates":[[-114.062941402414,51.0451315964297],[-114.062959816714,51.044876552243]]}},{"type":"Feature","id":18882,"properties":{"OBJECTID":18882,"BLOCK_SIDE":"S","ADDRESS_DESC":"9 Av SW ,  Fr Centre St S To 1 St SW","PARKING_ZONE":2648,"ZONE_TYPE":"Taxi Zone","STALL_TYPE":"Parallel","ZONE_CAP":3,"STATUS":"Active","PRICE_ZONE":"4c","PARKING_RESTRICT_TIME":"none","PARKING_RESTRICT_TYPE":"none","MAX_TIME":1440,"ENFORCEABLE_TIME":"0001-2359 MON-SUN","NO_STOPPING":null,"NO_PARKING":null,"COMMENTS":null},"geometry":{"type":"LineString","coordinates":[[-114.065145569285,51.0445922380016],[-114.065371863922,51.0445986840488],[-114.065377353364,51.044599068436],[-114.065381730063,51.0446001699273],[-114.065386166812,51.0446023942027]]}},{"type":"Feature","id":17151,"properties":{"OBJECTID":17151,"BLOCK_SIDE":"S","ADDRESS_DESC":"9 Av SE ,  Fr 1 St SE To Centre St S","PARKING_ZONE":2654,"ZONE_TYPE":"Loading Zone","STALL_TYPE":"Parallel","ZONE_CAP":3,"STATUS":"Active","PRICE_ZONE":"4c","PARKING_RESTRICT_TIME":"none","PARKING_RESTRICT_TYPE":"none","MAX_TIME":20,"ENFORCEABLE_TIME":"0001-2359 MON-SUN","NO_STOPPING":null,"NO_PARKING":null,"COMMENTS":null},"geometry":{"type":"LineString","coordinates":[[-114.061608579471,51.0444670140598],[-114.061623067041,51.044464000255],[-114.061640493351,51.0444617912778],[-114.061674683668,51.0444601380088],[-114.061868139445,51.0444655374857]]}},{"type":"Feature","id":13441,"properties":{"OBJECTID":13441,"BLOCK_SIDE":"S","ADDRESS_DESC":"10 Av SW ,  Fr 1 St Sw To Centre St S","PARKING_ZONE":3148,"ZONE_TYPE":"Parking Zone","STALL_TYPE":"Parallel","ZONE_CAP":5,"STATUS":"Active","PRICE_ZONE":"14","PARKING_RESTRICT_TIME":"none","PARKING_RESTRICT_TYPE":"none","MAX_TIME":120,"ENFORCEABLE_TIME":"0910-1750 MON-FRI","NO_STOPPING":null,"NO_PARKING":null,"COMMENTS":null},"geometry":{"type":"LineString","coordinates":[[-114.06509747821539,51.04331],[-114.065304731389,51.043316050752]]}},{"type":"Feature","id":16993,"properties":{"OBJECTID":16993,"BLOCK_SIDE":"S","ADDRESS_DESC":"9 Av SW ,  Fr Centre St S To 1 St SW","PARKING_ZONE":2649,"ZONE_TYPE":"Loading Zone","STALL_TYPE":"Parallel","ZONE_CAP":8,"STATUS":"Active","PRICE_ZONE":"4c","PARKING_RESTRICT_TIME":"none","PARKING_RESTRICT_TYPE":"none","MAX_TIME":20,"ENFORCEABLE_TIME":"0001-2359 MON-SUN","NO_STOPPING":null,"NO_PARKING":null,"COMMENTS":null},"geometry":{"type":"LineString","coordinates":[[-114.064457485883,51.0445726353096],[-114.065145569285,51.0445922380016]]}},{"type":"Feature","id":992,"properties":{"OBJECTID":992,"BLOCK_SIDE":"S","ADDRESS_DESC":"9 Av SW ,  Fr Centre St S To 1 St SW","PARKING_ZONE":2650,"ZONE_TYPE":"Registered Loading Zone ","STALL_TYPE":"Parallel","ZONE_CAP":10,"STATUS":"Active","PRICE_ZONE":"4c","PARKING_RESTRICT_TIME":"none","PARKING_RESTRICT_TYPE":"none","MAX_TIME":20,"ENFORCEABLE_TIME":"0001-2359 MON-SUN","NO_STOPPING":null,"NO_PARKING":null,"COMMENTS":null},"geometry":{"type":"LineString","coordinates":[[-114.06331345196,51.0445400354598],[-114.064185309132,51.0445648804185]]}},{"type":"Feature","id":586,"properties":{"OBJECTID":586,"BLOCK_SIDE":"N","ADDRESS_DESC":"9 Av SW ,  Fr Centre St S To 1 St SW","PARKING_ZONE":2511,"ZONE_TYPE":"Parking Zone","STALL_TYPE":"Parallel","ZONE_CAP":9,"STATUS":"Active","PRICE_ZONE":"4c","PARKING_RESTRICT_TIME":"none","PARKING_RESTRICT_TYPE":"none","MAX_TIME":120,"ENFORCEABLE_TIME":"0710-1750 MON-FRI, 0910-1750 SAT","NO_STOPPING":null,"NO_PARKING":null,"COMMENTS":null},"geometry":{"type":"LineString","coordinates":[[-114.065200234022,51.0447372479045],[-114.064398195543,51.0447141790061]]}},{"type":"Feature","id":526,"properties":{"OBJECTID":526,"BLOCK_SIDE":"S","ADDRESS_DESC":"9 Av SE ,  Fr 1 St SE To Centre St S","PARKING_ZONE":2653,"ZONE_TYPE":"Parking Zone","STALL_TYPE":"Parallel","ZONE_CAP":4,"STATUS":"Active","PRICE_ZONE":"4c","PARKING_RESTRICT_TIME":"none","PARKING_RESTRICT_TYPE":"none","MAX_TIME":120,"ENFORCEABLE_TIME":"0710-1750 MON-FRI, 0910-1750 SAT","NO_STOPPING":null,"NO_PARKING":null,"COMMENTS":null},"geometry":{"type":"LineString","coordinates":[[-114.061868139445,51.0444655374857],[-114.061914989976,51.044466872824],[-114.061971733429,51.0444684905702],[-114.062118183525,51.0444727305987],[-114.06215507785,51.0444765675812],[-114.062180317364,51.0444817178605],[-114.062196765936,51.044486313651],[-114.062237033154,51.0444999188569]]}},{"type":"Feature","id":18889,"properties":{"OBJECTID":18889,"BLOCK_SIDE":"W","ADDRESS_DESC":"Centre St S ,  Fr 8 Av SW To 9 Av SW","PARKING_ZONE":2509,"ZONE_TYPE":"Taxi Zone","STALL_TYPE":"Parallel","ZONE_CAP":2,"STATUS":"Active","PRICE_ZONE":"4c","PARKING_RESTRICT_TIME":"none","PARKING_RESTRICT_TYPE":"none","MAX_TIME":1440,"ENFORCEABLE_TIME":"0001-2359 MON-SUN","NO_STOPPING":null,"NO_PARKING":null,"COMMENTS":null},"geometry":{"type":"LineString","coordinates":[[-114.063176092416,51.0449204007387],[-114.063168188207,51.0450308618775]]}},{"type":"Feature","id":867,"properties":{"OBJECTID":867,"BLOCK_SIDE":"N","ADDRESS_DESC":"10 Av SW ,  Fr Centre St S To 1 St SW","PARKING_ZONE":2936,"ZONE_TYPE":"Parking Zone","STALL_TYPE":"Parallel","ZONE_CAP":3,"STATUS":"Active","PRICE_ZONE":"14","PARKING_RESTRICT_TIME":"none","PARKING_RESTRICT_TYPE":"none","MAX_TIME":120,"ENFORCEABLE_TIME":"0910-1750 MON-FRI","NO_STOPPING":null,"NO_PARKING":null,"COMMENTS":null},"geometry":{"type":"LineString","coordinates":[[-114.064437062294,51.0434164991011],[-114.064189186999,51.0434094401088]]}},{"type":"Feature","id":17123,"properties":{"OBJECTID":17123,"BLOCK_SIDE":"N","ADDRESS_DESC":"10 Av SE ,  Fr Centre St S To 1 St SE","PARKING_ZONE":2940,"ZONE_TYPE":"Loading Zone","STALL_TYPE":"Parallel","ZONE_CAP":3,"STATUS":"Active","PRICE_ZONE":"14","PARKING_RESTRICT_TIME":"none","PARKING_RESTRICT_TYPE":"none","MAX_TIME":120,"ENFORCEABLE_TIME":"0001-2359 MON-SUN","NO_STOPPING":null,"NO_PARKING":null,"COMMENTS":null},"geometry":{"type":"LineString","coordinates":[[-114.061530881191,51.0433337036864],[-114.061304375058,51.0433272467173]]}},{"type":"Feature","id":17037,"properties":{"OBJECTID":17037,"BLOCK_SIDE":"N","ADDRESS_DESC":"10 Av SW ,  Fr Centre St S To 1 St SW","PARKING_ZONE":2935,"ZONE_TYPE":"Loading Zone","STALL_TYPE":"Parallel","ZONE_CAP":3,"STATUS":"Active","PRICE_ZONE":"14","PARKING_RESTRICT_TIME":"none","PARKING_RESTRICT_TYPE":"none","MAX_TIME":20,"ENFORCEABLE_TIME":"0001-2359 MON-SUN","NO_STOPPING":null,"NO_PARKING":null,"COMMENTS":null},"geometry":{"type":"LineString","coordinates":[[-114.065265041276,51.0434400746563],[-114.065039958767,51.0434336663834]]}},{"type":"Feature","id":249,"properties":{"OBJECTID":249,"BLOCK_SIDE":"W","ADDRESS_DESC":"1 St SW ,  Fr 8 Av SW To 9 Av SW","PARKING_ZONE":2495,"ZONE_TYPE":"Parking Zone","STALL_TYPE":"Parallel","ZONE_CAP":4,"STATUS":"Active","PRICE_ZONE":"4c","PARKING_RESTRICT_TIME":"07:00 - 08:30 , 15:30 - 18:00","PARKING_RESTRICT_TYPE":"AM&PM","MAX_TIME":60,"ENFORCEABLE_TIME":"0840-1520 MON-FRI, 0910-1750 SAT","NO_STOPPING":null,"NO_PARKING":null,"COMMENTS":null},"geometry":{"type":"LineString","coordinates":[[-114.065617958553,51.0451990469367],[-114.065602687526,51.0454136854081]]}}]}
