<?xml version='1.0' encoding='utf-8'?>
<kml xmlns="http://www.opengis.net/kml/2.2"><Document><name>ParkSight Calgary Tower curb overlay</name><description>City-designated curb uses; colors do not assert that parking is allowed at the current time. Uncolored curbs have no pilot zone record.</description><Style id="parking"><LineStyle><color>ff648022</color><width>6</width></LineStyle></Style><Style id="loading"><LineStyle><color>ff24a3e9</color><width>6</width></LineStyle></Style><Style id="taxi"><LineStyle><color>ffc95a80</color><width>6</width></LineStyle></Style><Style id="other"><LineStyle><color>ffa09576</color><width>6</width></LineStyle></Style><Placemark><name>Loading Zone · 1 St SW ,  Fr 8 Av SW To 9 Av SW</name><description>City-designated curb use. Check posted signs and current restrictions before parking.</description><styleUrl>#loading</styleUrl><ExtendedData><Data name="id"><value>calgary:parking-zone:17149</value></Data><Data name="jurisdiction"><value>ca-ab-calgary</value></Data><Data name="timezone"><value>America/Edmonton</value></Data><Data name="category"><value>loading</value></Data><Data name="color"><value>#e9a324</value></Data><Data name="label"><value>Loading Zone</value></Data><Data name="street"><value>1 St SW ,  Fr 8 Av SW To 9 Av SW</value></Data><Data name="max_stay_minutes"><value>20</value></Data><Data name="enforceable_time"><value>0001-2359 MON-SUN</value></Data><Data name="parking_restrict_time"><value>07:00 - 08:30 , 15:30 - 18:00</value></Data><Data name="source_id"><value>17149</value></Data><Data name="source_url"><value>https://data.calgary.ca/d/rhkg-vwwp</value></Data><Data name="source_retrieved_at"><value>2026-09-23T00:27:48.252309+00:00</value></Data><Data name="verification"><value>city_record_only</value></Data></ExtendedData><LineString><tessellate>1</tessellate><coordinates>-114.065602687526,51.0454136854081,0 -114.065596298584,51.0455034928382,0</coordinates></LineString></Placemark><Placemark><name>Parking Zone · 9 Av SE ,  Fr 1 St SE To Centre St S</name><description>City-designated curb use. Check posted signs and current restrictions before parking.</description><styleUrl>#parking</styleUrl><ExtendedData><Data name="id"><value>calgary:parking-zone:16331</value></Data><Data name="jurisdiction"><value>ca-ab-calgary</value></Data><Data name="timezone"><value>America/Edmonton</value></Data><Data name="category"><value>parking</value></Data><Data name="color"><value>#228064</value></Data><Data name="label"><value>Parking Zone</value></Data><Data name="street"><value>9 Av SE ,  Fr 1 St SE To Centre St S</value></Data><Data name="max_stay_minutes"><value>120</value></Data><Data name="enforceable_time"><value>0710-1750 MON-FRI, 0910-1750 SAT</value></Data><Data name="parking_restrict_time"><value>none</value></Data><Data name="source_id"><value>16331</value></Data><Data name="source_url"><value>https://data.calgary.ca/d/rhkg-vwwp</value></Data><Data name="source_retrieved_at"><value>2026-09-23T00:27:48.252309+00:00</value></Data><Data name="verification"><value>city_record_only</value></Data></ExtendedData><LineString><tessellate>1</tessellate><coordinates>-114.061808147141,51.0446855228696,0 -114.061794375382,51.0446853108019,0 -114.061324737357,51.0446721095098,0 -114.061313234322,51.0446717865203,0 -114.061251279425,51.0446677088972,0 -114.061190530624,51.0446590269667,0 -114.061169412708,51.0446551643439,0</coordinates></LineString></Placemark><Placemark><name>Parking Zone · Centre St S ,  Fr 8 Av SW To 9 Av SW</name><description>City-designated curb use. Check posted signs and current restrictions before parking.</description><styleUrl>#parking</styleUrl><ExtendedData><Data name="id"><value>calgary:parking-zone:95</value></Data><Data name="jurisdiction"><value>ca-ab-calgary</value></Data><Data name="timezone"><value>America/Edmonton</value></Data><Data name="category"><value>parking</value></Data><Data name="color"><value>#228064</value></Data><Data name="label"><value>Parking Zone</value></Data><Data name="street"><value>Centre St S ,  Fr 8 Av SW To 9 Av SW</value></Data><Data name="max_stay_minutes"><value>120</value></Data><Data name="enforceable_time"><value>0910-1750 MON-SAT</value></Data><Data name="parking_restrict_time"><value>none</value></Data><Data name="source_id"><value>95</value></Data><Data name="source_url"><value>https://data.calgary.ca/d/rhkg-vwwp</value></Data><Data name="source_retrieved_at"><value>2026-09-23T00:27:48.252309+00:00</value></Data><Data name="verification"><value>city_record_only</value></Data></ExtendedData><LineString><tessellate>1</tessellate><coordinates>-114.063161011742,51.045131190291,0 -114.063139553486,51.0454311425599,0</coordinates></LineString></Placemark><Placemark><name>Parking Zone · 10 Av SE ,  Fr Centre St S To 1 St SE</name><description>City-designated curb use. Check posted signs and current restrictions before parking.</description><styleUrl>#parking</styleUrl><ExtendedData><Data name="id"><value>calgary:parking-zone:719</value></Data><Data name="jurisdiction"><value>ca-ab-calgary</value></Data><Data name="timezone"><value>America/Edmonton</value></Data><Data name="category"><value>parking</value></Data><Data name="color"><value>#228064</value></Data><Data name="label"><value>Parking Zone</value></Data><Data name="street"><value>10 Av SE ,  Fr Centre St S To 1 St SE</value></Data><Data name="max_stay_minutes"><value>120</value></Data><Data name="enforceable_time"><value>0910-1750 MON-FRI</value></Data><Data name="parking_restrict_time"><value>none</value></Data><Data name="source_id"><value>719</value></Data><Data name="source_url"><value>https://data.calgary.ca/d/rhkg-vwwp</value></Data><Data name="source_retrieved_at"><value>2026-09-23T00:27:48.252309+00:00</value></Data><Data name="verification"><value>city_record_only</value></Data></ExtendedData><LineString><tessellate>1</tessellate><coordinates>-114.062278171329,51.0433550001257,0 -114.061751082711,51.043339979258,0</coordinates></LineString></Placemark><Placemark><name>Taxi Zone · Centre St S ,  Fr 8 Av SE To 9 Av SE</name><description>City-designated curb use. Check posted signs and current restrictions before parking.</description><styleUrl>#taxi</styleUrl><ExtendedData><Data name="id"><value>calgary:parking-zone:18890</value></Data><Data name="jurisdiction"><value>ca-ab-calgary</value></Data><Data name="timezone"><value>America/Edmonton</value></Data><Data name="category"><value>taxi</value></Data><Data name="color"><value>#805ac9</value></Data><Data name="label"><value>Taxi Zone</value></Data><Data name="street"><value>Centre St S ,  Fr 8 Av SE To 9 Av SE</value></Data><Data name="max_stay_minutes"><value>1440</value></Data><Data name="enforceable_time"><value>0001-2359 MON-SUN</value></Data><Data name="parking_restrict_time"><value>none</value></Data><Data name="source_id"><value>18890</value></Data><Data name="source_url"><value>https://data.calgary.ca/d/rhkg-vwwp</value></Data><Data name="source_retrieved_at"><value>2026-09-23T00:27:48.252309+00:00</value></Data><Data name="verification"><value>city_record_only</value></Data></ExtendedData><LineString><tessellate>1</tessellate><coordinates>-114.062926226732,51.0453457256813,0 -114.062931700916,51.0452684910311,0</coordinates></LineString></Placemark><Placemark><name>Parking Zone · 10 Av SW ,  Fr Centre St S To 1 St SW</name><description>City-designated curb use. Check posted signs and current restrictions before parking.</description><styleUrl>#parking</styleUrl><ExtendedData><Data name="id"><value>calgary:parking-zone:868</value></Data><Data name="jurisdiction"><value>ca-ab-calgary</value></Data><Data name="timezone"><value>America/Edmonton</value></Data><Data name="category"><value>parking</value></Data><Data name="color"><value>#228064</value></Data><Data name="label"><value>Parking Zone</value></Data><Data name="street"><value>10 Av SW ,  Fr Centre St S To 1 St SW</value></Data><Data name="max_stay_minutes"><value>120</value></Data><Data name="enforceable_time"><value>0910-1750 MON-FRI</value></Data><Data name="parking_restrict_time"><value>none</value></Data><Data name="source_id"><value>868</value></Data><Data name="source_url"><value>https://data.calgary.ca/d/rhkg-vwwp</value></Data><Data name="source_retrieved_at"><value>2026-09-23T00:27:48.252309+00:00</value></Data><Data name="verification"><value>city_record_only</value></Data></ExtendedData><LineString><tessellate>1</tessellate><coordinates>-114.063709692493,51.0433957836486,0 -114.063421930039,51.0433875868861,0</coordinates></LineString></Placemark><Placemark><name>Parking Zone · 1 St SE ,  Fr 8 Av SE To 9 Av SE</name><description>City-designated curb use. Check posted signs and current restrictions before parking.</description><styleUrl>#parking</styleUrl><ExtendedData><Data name="id"><value>calgary:parking-zone:845</value></Data><Data name="jurisdiction"><value>ca-ab-calgary</value></Data><Data name="timezone"><value>America/Edmonton</value></Data><Data name="category"><value>parking</value></Data><Data name="color"><value>#228064</value></Data><Data name="label"><value>Parking Zone</value></Data><Data name="street"><value>1 St SE ,  Fr 8 Av SE To 9 Av SE</value></Data><Data name="max_stay_minutes"><value>30</value></Data><Data name="enforceable_time"><value>0710-1750 MON-FRI, 0910-1750 SAT</value></Data><Data name="parking_restrict_time"><value>none</value></Data><Data name="source_id"><value>845</value></Data><Data name="source_url"><value>https://data.calgary.ca/d/rhkg-vwwp</value></Data><Data name="source_retrieved_at"><value>2026-09-23T00:27:48.252309+00:00</value></Data><Data name="verification"><value>city_record_only</value></Data></ExtendedData><LineString><tessellate>1</tessellate><coordinates>-114.060766576281,51.0451805682422,0 -114.060763531239,51.0452238895554,0 -114.060757744267,51.0452577254273,0 -114.060745242348,51.0452908321255,0</coordinates></LineString></Placemark><Placemark><name>Parking Zone · 10 Av SE ,  Fr Centre St S To 1 St SE</name><description>City-designated curb use. Check posted signs and current restrictions before parking.</description><styleUrl>#parking</styleUrl><ExtendedData><Data name="id"><value>calgary:parking-zone:1274</value></Data><Data name="jurisdiction"><value>ca-ab-calgary</value></Data><Data name="timezone"><value>America/Edmonton</value></Data><Data name="category"><value>parking</value></Data><Data name="color"><value>#228064</value></Data><Data name="label"><value>Parking Zone</value></Data><Data name="street"><value>10 Av SE ,  Fr Centre St S To 1 St SE</value></Data><Data name="max_stay_minutes"><value>20</value></Data><Data name="enforceable_time"><value>0910-1750 MON-FRI</value></Data><Data name="parking_restrict_time"><value>none</value></Data><Data name="source_id"><value>1274</value></Data><Data name="source_url"><value>https://data.calgary.ca/d/rhkg-vwwp</value></Data><Data name="source_retrieved_at"><value>2026-09-23T00:27:48.252309+00:00</value></Data><Data name="verification"><value>city_record_only</value></Data></ExtendedData><LineString><tessellate>1</tessellate><coordinates>-114.06130268944,51.0433271990568,0 -114.061009229243,51.0433188339314,0</coordinates></LineString></Placemark><Placemark><name>Loading Zone · Centre St S ,  Fr 8 Av SW To 9 Av SW</name><description>City-designated curb use. Check posted signs and current restrictions before parking.</description><styleUrl>#loading</styleUrl><ExtendedData><Data name="id"><value>calgary:parking-zone:17007</value></Data><Data name="jurisdiction"><value>ca-ab-calgary</value></Data><Data name="timezone"><value>America/Edmonton</value></Data><Data name="category"><value>loading</value></Data><Data name="color"><value>#e9a324</value></Data><Data name="label"><value>Loading Zone</value></Data><Data name="street"><value>Centre St S ,  Fr 8 Av SW To 9 Av SW</value></Data><Data name="max_stay_minutes"><value>20</value></Data><Data name="enforceable_time"><value>0001-2359 MON-SUN</value></Data><Data name="parking_restrict_time"><value>none</value></Data><Data name="source_id"><value>17007</value></Data><Data name="source_url"><value>https://data.calgary.ca/d/rhkg-vwwp</value></Data><Data name="source_retrieved_at"><value>2026-09-23T00:27:48.252309+00:00</value></Data><Data name="verification"><value>city_record_only</value></Data></ExtendedData><LineString><tessellate>1</tessellate><coordinates>-114.06318540393,51.0447731141862,0 -114.063185722685,51.0447757569959,0 -114.063185751278,51.0447852438475,0 -114.063176092416,51.0449204007387,0</coordinates></LineString></Placemark><Placemark><name>Parking Zone · 10 Av SW ,  Fr Centre St S To 1 St SW</name><description>City-designated curb use. Check posted signs and current restrictions before parking.</description><styleUrl>#parking</styleUrl><ExtendedData><Data name="id"><value>calgary:parking-zone:777</value></Data><Data name="jurisdiction"><value>ca-ab-calgary</value></Data><Data name="timezone"><value>America/Edmonton</value></Data><Data name="category"><value>parking</value></Data><Data name="color"><value>#228064</value></Data><Data name="label"><value>Parking Zone</value></Data><Data name="street"><value>10 Av SW ,  Fr Centre St S To 1 St SW</value></Data><Data name="max_stay_minutes"><value>120</value></Data><Data name="enforceable_time"><value>0910-1750 MON-FRI</value></Data><Data name="parking_restrict_time"><value>none</value></Data><Data name="source_id"><value>777</value></Data><Data name="source_url"><value>https://data.calgary.ca/d/rhkg-vwwp</value></Data><Data name="source_retrieved_at"><value>2026-09-23T00:27:48.252309+00:00</value></Data><Data name="verification"><value>city_record_only</value></Data></ExtendedData><LineString><tessellate>1</tessellate><coordinates>-114.064839032682,51.0434279454782,0 -114.064612525635,51.0434214949207,0</coordinates></LineString></Placemark><Placemark><name>Parking Zone · 10 Av SE ,  Fr Centre St S To 1 St SE</name><description>City-designated curb use. Check posted signs and current restrictions before parking.</description><styleUrl>#parking</styleUrl><ExtendedData><Data name="id"><value>calgary:parking-zone:734</value></Data><Data name="jurisdiction"><value>ca-ab-calgary</value></Data><Data name="timezone"><value>America/Edmonton</value></Data><Data name="category"><value>parking</value></Data><Data name="color"><value>#228064</value></Data><Data name="label"><value>Parking Zone</value></Data><Data name="street"><value>10 Av SE ,  Fr Centre St S To 1 St SE</value></Data><Data name="max_stay_minutes"><value>120</value></Data><Data name="enforceable_time"><value>0910-1750 MON-FRI</value></Data><Data name="parking_restrict_time"><value>none</value></Data><Data name="source_id"><value>734</value></Data><Data name="source_url"><value>https://data.calgary.ca/d/rhkg-vwwp</value></Data><Data name="source_retrieved_at"><value>2026-09-23T00:27:48.252309+00:00</value></Data><Data name="verification"><value>city_record_only</value></Data></ExtendedData><LineString><tessellate>1</tessellate><coordinates>-114.062936407957,51.0433737552242,0 -114.062528982336,51.0433621470027,0</coordinates></LineString></Placemark><Placemark><name>Loading Zone · Centre St S ,  Fr 8 Av SE To 9 Av SE</name><description>City-designated curb use. Check posted signs and current restrictions before parking.</description><styleUrl>#loading</styleUrl><ExtendedData><Data name="id"><value>calgary:parking-zone:17150</value></Data><Data name="jurisdiction"><value>ca-ab-calgary</value></Data><Data name="timezone"><value>America/Edmonton</value></Data><Data name="category"><value>loading</value></Data><Data name="color"><value>#e9a324</value></Data><Data name="label"><value>Loading Zone</value></Data><Data name="street"><value>Centre St S ,  Fr 8 Av SE To 9 Av SE</value></Data><Data name="max_stay_minutes"><value>20</value></Data><Data name="enforceable_time"><value>0001-2359 MON-SUN</value></Data><Data name="parking_restrict_time"><value>none</value></Data><Data name="source_id"><value>17150</value></Data><Data name="source_url"><value>https://data.calgary.ca/d/rhkg-vwwp</value></Data><Data name="source_retrieved_at"><value>2026-09-23T00:27:48.252309+00:00</value></Data><Data name="verification"><value>city_record_only</value></Data></ExtendedData><LineString><tessellate>1</tessellate><coordinates>-114.062941402414,51.0451315964297,0 -114.062959816714,51.044876552243,0</coordinates></LineString></Placemark><Placemark><name>Taxi Zone · 9 Av SW ,  Fr Centre St S To 1 St SW</name><description>City-designated curb use. Check posted signs and current restrictions before parking.</description><styleUrl>#taxi</styleUrl><ExtendedData><Data name="id"><value>calgary:parking-zone:18882</value></Data><Data name="jurisdiction"><value>ca-ab-calgary</value></Data><Data name="timezone"><value>America/Edmonton</value></Data><Data name="category"><value>taxi</value></Data><Data name="color"><value>#805ac9</value></Data><Data name="label"><value>Taxi Zone</value></Data><Data name="street"><value>9 Av SW ,  Fr Centre St S To 1 St SW</value></Data><Data name="max_stay_minutes"><value>1440</value></Data><Data name="enforceable_time"><value>0001-2359 MON-SUN</value></Data><Data name="parking_restrict_time"><value>none</value></Data><Data name="source_id"><value>18882</value></Data><Data name="source_url"><value>https://data.calgary.ca/d/rhkg-vwwp</value></Data><Data name="source_retrieved_at"><value>2026-09-23T00:27:48.252309+00:00</value></Data><Data name="verification"><value>city_record_only</value></Data></ExtendedData><LineString><tessellate>1</tessellate><coordinates>-114.065145569285,51.0445922380016,0 -114.065371863922,51.0445986840488,0 -114.065377353364,51.044599068436,0 -114.065381730063,51.0446001699273,0 -114.065386166812,51.0446023942027,0</coordinates></LineString></Placemark><Placemark><name>Loading Zone · 9 Av SE ,  Fr 1 St SE To Centre St S</name><description>City-designated curb use. Check posted signs and current restrictions before parking.</description><styleUrl>#loading</styleUrl><ExtendedData><Data name="id"><value>calgary:parking-zone:17151</value></Data><Data name="jurisdiction"><value>ca-ab-calgary</value></Data><Data name="timezone"><value>America/Edmonton</value></Data><Data name="category"><value>loading</value></Data><Data name="color"><value>#e9a324</value></Data><Data name="label"><value>Loading Zone</value></Data><Data name="street"><value>9 Av SE ,  Fr 1 St SE To Centre St S</value></Data><Data name="max_stay_minutes"><value>20</value></Data><Data name="enforceable_time"><value>0001-2359 MON-SUN</value></Data><Data name="parking_restrict_time"><value>none</value></Data><Data name="source_id"><value>17151</value></Data><Data name="source_url"><value>https://data.calgary.ca/d/rhkg-vwwp</value></Data><Data name="source_retrieved_at"><value>2026-09-23T00:27:48.252309+00:00</value></Data><Data name="verification"><value>city_record_only</value></Data></ExtendedData><LineString><tessellate>1</tessellate><coordinates>-114.061608579471,51.0444670140598,0 -114.061623067041,51.044464000255,0 -114.061640493351,51.0444617912778,0 -114.061674683668,51.0444601380088,0 -114.061868139445,51.0444655374857,0</coordinates></LineString></Placemark><Placemark><name>Parking Zone · 10 Av SW ,  Fr 1 St Sw To Centre St S</name><description>City-designated curb use. Check posted signs and current restrictions before parking.</description><styleUrl>#parking</styleUrl><ExtendedData><Data name="id"><value>calgary:parking-zone:13441</value></Data><Data name="jurisdiction"><value>ca-ab-calgary</value></Data><Data name="timezone"><value>America/Edmonton</value></Data><Data name="category"><value>parking</value></Data><Data name="color"><value>#228064</value></Data><Data name="label"><value>Parking Zone</value></Data><Data name="street"><value>10 Av SW ,  Fr 1 St Sw To Centre St S</value></Data><Data name="max_stay_minutes"><value>120</value></Data><Data name="enforceable_time"><value>0910-1750 MON-FRI</value></Data><Data name="parking_restrict_time"><value>none</value></Data><Data name="source_id"><value>13441</value></Data><Data name="source_url"><value>https://data.calgary.ca/d/rhkg-vwwp</value></Data><Data name="source_retrieved_at"><value>2026-09-23T00:27:48.252309+00:00</value></Data><Data name="verification"><value>city_record_only</value></Data></ExtendedData><LineString><tessellate>1</tessellate><coordinates>-114.06509747821539,51.04331,0 -114.065304731389,51.043316050752,0</coordinates></LineString></Placemark><Placemark><name>Loading Zone · 9 Av SW ,  Fr Centre St S To 1 St SW</name><description>City-designated curb use. Check posted signs and current restrictions before parking.</description><styleUrl>#loading</styleUrl><ExtendedData><Data name="id"><value>calgary:parking-zone:16993</value></Data><Data name="jurisdiction"><value>ca-ab-calgary</value></Data><Data name="timezone"><value>America/Edmonton</value></Data><Data name="category"><value>loading</value></Data><Data name="color"><value>#e9a324</value></Data><Data name="label"><value>Loading Zone</value></Data><Data name="street"><value>9 Av SW ,  Fr Centre St S To 1 St SW</value></Data><Data name="max_stay_minutes"><value>20</value></Data><Data name="enforceable_time"><value>0001-2359 MON-SUN</value></Data><Data name="parking_restrict_time"><value>none</value></Data><Data name="source_id"><value>16993</value></Data><Data name="source_url"><value>https://data.calgary.ca/d/rhkg-vwwp</value></Data><Data name="source_retrieved_at"><value>2026-09-23T00:27:48.252309+00:00</value></Data><Data name="verification"><value>city_record_only</value></Data></ExtendedData><LineString><tessellate>1</tessellate><coordinates>-114.064457485883,51.0445726353096,0 -114.065145569285,51.0445922380016,0</coordinates></LineString></Placemark><Placemark><name>Registered Loading Zone · 9 Av SW ,  Fr Centre St S To 1 St SW</name><description>City-designated curb use. Check posted signs and current restrictions before parking.</description><styleUrl>#loading</styleUrl><ExtendedData><Data name="id"><value>calgary:parking-zone:992</value></Data><Data name="jurisdiction"><value>ca-ab-calgary</value></Data><Data name="timezone"><value>America/Edmonton</value></Data><Data name="category"><value>loading</value></Data><Data name="color"><value>#e9a324</value></Data><Data name="label"><value>Registered Loading Zone</value></Data><Data name="street"><value>9 Av SW ,  Fr Centre St S To 1 St SW</value></Data><Data name="max_stay_minutes"><value>20</value></Data><Data name="enforceable_time"><value>0001-2359 MON-SUN</value></Data><Data name="parking_restrict_time"><value>none</value></Data><Data name="source_id"><value>992</value></Data><Data name="source_url"><value>https://data.calgary.ca/d/rhkg-vwwp</value></Data><Data name="source_retrieved_at"><value>2026-09-23T00:27:48.252309+00:00</value></Data><Data name="verification"><value>city_record_only</value></Data></ExtendedData><LineString><tessellate>1</tessellate><coordinates>-114.06331345196,51.0445400354598,0 -114.064185309132,51.0445648804185,0</coordinates></LineString></Placemark><Placemark><name>Parking Zone · 9 Av SW ,  Fr Centre St S To 1 St SW</name><description>City-designated curb use. Check posted signs and current restrictions before parking.</description><styleUrl>#parking</styleUrl><ExtendedData><Data name="id"><value>calgary:parking-zone:586</value></Data><Data name="jurisdiction"><value>ca-ab-calgary</value></Data><Data name="timezone"><value>America/Edmonton</value></Data><Data name="category"><value>parking</value></Data><Data name="color"><value>#228064</value></Data><Data name="label"><value>Parking Zone</value></Data><Data name="street"><value>9 Av SW ,  Fr Centre St S To 1 St SW</value></Data><Data name="max_stay_minutes"><value>120</value></Data><Data name="enforceable_time"><value>0710-1750 MON-FRI, 0910-1750 SAT</value></Data><Data name="parking_restrict_time"><value>none</value></Data><Data name="source_id"><value>586</value></Data><Data name="source_url"><value>https://data.calgary.ca/d/rhkg-vwwp</value></Data><Data name="source_retrieved_at"><value>2026-09-23T00:27:48.252309+00:00</value></Data><Data name="verification"><value>city_record_only</value></Data></ExtendedData><LineString><tessellate>1</tessellate><coordinates>-114.065200234022,51.0447372479045,0 -114.064398195543,51.0447141790061,0</coordinates></LineString></Placemark><Placemark><name>Parking Zone · 9 Av SE ,  Fr 1 St SE To Centre St S</name><description>City-designated curb use. Check posted signs and current restrictions before parking.</description><styleUrl>#parking</styleUrl><ExtendedData><Data name="id"><value>calgary:parking-zone:526</value></Data><Data name="jurisdiction"><value>ca-ab-calgary</value></Data><Data name="timezone"><value>America/Edmonton</value></Data><Data name="category"><value>parking</value></Data><Data name="color"><value>#228064</value></Data><Data name="label"><value>Parking Zone</value></Data><Data name="street"><value>9 Av SE ,  Fr 1 St SE To Centre St S</value></Data><Data name="max_stay_minutes"><value>120</value></Data><Data name="enforceable_time"><value>0710-1750 MON-FRI, 0910-1750 SAT</value></Data><Data name="parking_restrict_time"><value>none</value></Data><Data name="source_id"><value>526</value></Data><Data name="source_url"><value>https://data.calgary.ca/d/rhkg-vwwp</value></Data><Data name="source_retrieved_at"><value>2026-09-23T00:27:48.252309+00:00</value></Data><Data name="verification"><value>city_record_only</value></Data></ExtendedData><LineString><tessellate>1</tessellate><coordinates>-114.061868139445,51.0444655374857,0 -114.061914989976,51.044466872824,0 -114.061971733429,51.0444684905702,0 -114.062118183525,51.0444727305987,0 -114.06215507785,51.0444765675812,0 -114.062180317364,51.0444817178605,0 -114.062196765936,51.044486313651,0 -114.062237033154,51.0444999188569,0</coordinates></LineString></Placemark><Placemark><name>Taxi Zone · Centre St S ,  Fr 8 Av SW To 9 Av SW</name><description>City-designated curb use. Check posted signs and current restrictions before parking.</description><styleUrl>#taxi</styleUrl><ExtendedData><Data name="id"><value>calgary:parking-zone:18889</value></Data><Data name="jurisdiction"><value>ca-ab-calgary</value></Data><Data name="timezone"><value>America/Edmonton</value></Data><Data name="category"><value>taxi</value></Data><Data name="color"><value>#805ac9</value></Data><Data name="label"><value>Taxi Zone</value></Data><Data name="street"><value>Centre St S ,  Fr 8 Av SW To 9 Av SW</value></Data><Data name="max_stay_minutes"><value>1440</value></Data><Data name="enforceable_time"><value>0001-2359 MON-SUN</value></Data><Data name="parking_restrict_time"><value>none</value></Data><Data name="source_id"><value>18889</value></Data><Data name="source_url"><value>https://data.calgary.ca/d/rhkg-vwwp</value></Data><Data name="source_retrieved_at"><value>2026-09-23T00:27:48.252309+00:00</value></Data><Data name="verification"><value>city_record_only</value></Data></ExtendedData><LineString><tessellate>1</tessellate><coordinates>-114.063176092416,51.0449204007387,0 -114.063168188207,51.0450308618775,0</coordinates></LineString></Placemark><Placemark><name>Parking Zone · 10 Av SW ,  Fr Centre St S To 1 St SW</name><description>City-designated curb use. Check posted signs and current restrictions before parking.</description><styleUrl>#parking</styleUrl><ExtendedData><Data name="id"><value>calgary:parking-zone:867</value></Data><Data name="jurisdiction"><value>ca-ab-calgary</value></Data><Data name="timezone"><value>America/Edmonton</value></Data><Data name="category"><value>parking</value></Data><Data name="color"><value>#228064</value></Data><Data name="label"><value>Parking Zone</value></Data><Data name="street"><value>10 Av SW ,  Fr Centre St S To 1 St SW</value></Data><Data name="max_stay_minutes"><value>120</value></Data><Data name="enforceable_time"><value>0910-1750 MON-FRI</value></Data><Data name="parking_restrict_time"><value>none</value></Data><Data name="source_id"><value>867</value></Data><Data name="source_url"><value>https://data.calgary.ca/d/rhkg-vwwp</value></Data><Data name="source_retrieved_at"><value>2026-09-23T00:27:48.252309+00:00</value></Data><Data name="verification"><value>city_record_only</value></Data></ExtendedData><LineString><tessellate>1</tessellate><coordinates>-114.064437062294,51.0434164991011,0 -114.064189186999,51.0434094401088,0</coordinates></LineString></Placemark><Placemark><name>Loading Zone · 10 Av SE ,  Fr Centre St S To 1 St SE</name><description>City-designated curb use. Check posted signs and current restrictions before parking.</description><styleUrl>#loading</styleUrl><ExtendedData><Data name="id"><value>calgary:parking-zone:17123</value></Data><Data name="jurisdiction"><value>ca-ab-calgary</value></Data><Data name="timezone"><value>America/Edmonton</value></Data><Data name="category"><value>loading</value></Data><Data name="color"><value>#e9a324</value></Data><Data name="label"><value>Loading Zone</value></Data><Data name="street"><value>10 Av SE ,  Fr Centre St S To 1 St SE</value></Data><Data name="max_stay_minutes"><value>120</value></Data><Data name="enforceable_time"><value>0001-2359 MON-SUN</value></Data><Data name="parking_restrict_time"><value>none</value></Data><Data name="source_id"><value>17123</value></Data><Data name="source_url"><value>https://data.calgary.ca/d/rhkg-vwwp</value></Data><Data name="source_retrieved_at"><value>2026-09-23T00:27:48.252309+00:00</value></Data><Data name="verification"><value>city_record_only</value></Data></ExtendedData><LineString><tessellate>1</tessellate><coordinates>-114.061530881191,51.0433337036864,0 -114.061304375058,51.0433272467173,0</coordinates></LineString></Placemark><Placemark><name>Loading Zone · 10 Av SW ,  Fr Centre St S To 1 St SW</name><description>City-designated curb use. Check posted signs and current restrictions before parking.</description><styleUrl>#loading</styleUrl><ExtendedData><Data name="id"><value>calgary:parking-zone:17037</value></Data><Data name="jurisdiction"><value>ca-ab-calgary</value></Data><Data name="timezone"><value>America/Edmonton</value></Data><Data name="category"><value>loading</value></Data><Data name="color"><value>#e9a324</value></Data><Data name="label"><value>Loading Zone</value></Data><Data name="street"><value>10 Av SW ,  Fr Centre St S To 1 St SW</value></Data><Data name="max_stay_minutes"><value>20</value></Data><Data name="enforceable_time"><value>0001-2359 MON-SUN</value></Data><Data name="parking_restrict_time"><value>none</value></Data><Data name="source_id"><value>17037</value></Data><Data name="source_url"><value>https://data.calgary.ca/d/rhkg-vwwp</value></Data><Data name="source_retrieved_at"><value>2026-09-23T00:27:48.252309+00:00</value></Data><Data name="verification"><value>city_record_only</value></Data></ExtendedData><LineString><tessellate>1</tessellate><coordinates>-114.065265041276,51.0434400746563,0 -114.065039958767,51.0434336663834,0</coordinates></LineString></Placemark><Placemark><name>Parking Zone · 1 St SW ,  Fr 8 Av SW To 9 Av SW</name><description>City-designated curb use. Check posted signs and current restrictions before parking.</description><styleUrl>#parking</styleUrl><ExtendedData><Data name="id"><value>calgary:parking-zone:249</value></Data><Data name="jurisdiction"><value>ca-ab-calgary</value></Data><Data name="timezone"><value>America/Edmonton</value></Data><Data name="category"><value>parking</value></Data><Data name="color"><value>#228064</value></Data><Data name="label"><value>Parking Zone</value></Data><Data name="street"><value>1 St SW ,  Fr 8 Av SW To 9 Av SW</value></Data><Data name="max_stay_minutes"><value>60</value></Data><Data name="enforceable_time"><value>0840-1520 MON-FRI, 0910-1750 SAT</value></Data><Data name="parking_restrict_time"><value>07:00 - 08:30 , 15:30 - 18:00</value></Data><Data name="source_id"><value>249</value></Data><Data name="source_url"><value>https://data.calgary.ca/d/rhkg-vwwp</value></Data><Data name="source_retrieved_at"><value>2026-09-23T00:27:48.252309+00:00</value></Data><Data name="verification"><value>city_record_only</value></Data></ExtendedData><LineString><tessellate>1</tessellate><coordinates>-114.065617958553,51.0451990469367,0 -114.065602687526,51.0454136854081,0</coordinates></LineString></Placemark></Document></kml>