{"type":"FeatureCollection","name":"ParkSight Calgary Tower curb overlay","description":"City-designated curb uses; colors do not assert that parking is allowed at the current time. Uncolored curbs have no pilot zone record.","coverage_id":"ca-ab-calgary-tower-2x2","bounds":[-114.06565,51.04331,-114.06062,51.04561],"source":"https://data.calgary.ca/d/rhkg-vwwp","retrieved_at":"2026-09-23T00:27:48.252309+00:00","features":[{"type":"Feature","id":"calgary:parking-zone:17149","geometry":{"type":"LineString","coordinates":[[-114.065602687526,51.0454136854081],[-114.065596298584,51.0455034928382]]},"properties":{"id":"calgary:parking-zone:17149","jurisdiction":"ca-ab-calgary","timezone":"America/Edmonton","category":"loading","color":"#e9a324","label":"Loading Zone","street":"1 St SW ,  Fr 8 Av SW To 9 Av SW","max_stay_minutes":20,"enforceable_time":"0001-2359 MON-SUN","parking_restrict_time":"07:00 - 08:30 , 15:30 - 18:00","source_id":17149,"source_url":"https://data.calgary.ca/d/rhkg-vwwp","source_retrieved_at":"2026-09-23T00:27:48.252309+00:00","verification":"city_record_only"}},{"type":"Feature","id":"calgary:parking-zone:16331","geometry":{"type":"LineString","coordinates":[[-114.061808147141,51.0446855228696],[-114.061794375382,51.0446853108019],[-114.061324737357,51.0446721095098],[-114.061313234322,51.0446717865203],[-114.061251279425,51.0446677088972],[-114.061190530624,51.0446590269667],[-114.061169412708,51.0446551643439]]},"properties":{"id":"calgary:parking-zone:16331","jurisdiction":"ca-ab-calgary","timezone":"America/Edmonton","category":"parking","color":"#228064","label":"Parking Zone","street":"9 Av SE ,  Fr 1 St SE To Centre St S","max_stay_minutes":120,"enforceable_time":"0710-1750 MON-FRI, 0910-1750 SAT","parking_restrict_time":"none","source_id":16331,"source_url":"https://data.calgary.ca/d/rhkg-vwwp","source_retrieved_at":"2026-09-23T00:27:48.252309+00:00","verification":"city_record_only"}},{"type":"Feature","id":"calgary:parking-zone:95","geometry":{"type":"LineString","coordinates":[[-114.063161011742,51.045131190291],[-114.063139553486,51.0454311425599]]},"properties":{"id":"calgary:parking-zone:95","jurisdiction":"ca-ab-calgary","timezone":"America/Edmonton","category":"parking","color":"#228064","label":"Parking Zone","street":"Centre St S ,  Fr 8 Av SW To 9 Av SW","max_stay_minutes":120,"enforceable_time":"0910-1750 MON-SAT","parking_restrict_time":"none","source_id":95,"source_url":"https://data.calgary.ca/d/rhkg-vwwp","source_retrieved_at":"2026-09-23T00:27:48.252309+00:00","verification":"city_record_only"}},{"type":"Feature","id":"calgary:parking-zone:719","geometry":{"type":"LineString","coordinates":[[-114.062278171329,51.0433550001257],[-114.061751082711,51.043339979258]]},"properties":{"id":"calgary:parking-zone:719","jurisdiction":"ca-ab-calgary","timezone":"America/Edmonton","category":"parking","color":"#228064","label":"Parking Zone","street":"10 Av SE ,  Fr Centre St S To 1 St SE","max_stay_minutes":120,"enforceable_time":"0910-1750 MON-FRI","parking_restrict_time":"none","source_id":719,"source_url":"https://data.calgary.ca/d/rhkg-vwwp","source_retrieved_at":"2026-09-23T00:27:48.252309+00:00","verification":"city_record_only"}},{"type":"Feature","id":"calgary:parking-zone:18890","geometry":{"type":"LineString","coordinates":[[-114.062926226732,51.0453457256813],[-114.062931700916,51.0452684910311]]},"properties":{"id":"calgary:parking-zone:18890","jurisdiction":"ca-ab-calgary","timezone":"America/Edmonton","category":"taxi","color":"#805ac9","label":"Taxi Zone","street":"Centre St S ,  Fr 8 Av SE To 9 Av SE","max_stay_minutes":1440,"enforceable_time":"0001-2359 MON-SUN","parking_restrict_time":"none","source_id":18890,"source_url":"https://data.calgary.ca/d/rhkg-vwwp","source_retrieved_at":"2026-09-23T00:27:48.252309+00:00","verification":"city_record_only"}},{"type":"Feature","id":"calgary:parking-zone:868","geometry":{"type":"LineString","coordinates":[[-114.063709692493,51.0433957836486],[-114.063421930039,51.0433875868861]]},"properties":{"id":"calgary:parking-zone:868","jurisdiction":"ca-ab-calgary","timezone":"America/Edmonton","category":"parking","color":"#228064","label":"Parking Zone","street":"10 Av SW ,  Fr Centre St S To 1 St SW","max_stay_minutes":120,"enforceable_time":"0910-1750 MON-FRI","parking_restrict_time":"none","source_id":868,"source_url":"https://data.calgary.ca/d/rhkg-vwwp","source_retrieved_at":"2026-09-23T00:27:48.252309+00:00","verification":"city_record_only"}},{"type":"Feature","id":"calgary:parking-zone:845","geometry":{"type":"LineString","coordinates":[[-114.060766576281,51.0451805682422],[-114.060763531239,51.0452238895554],[-114.060757744267,51.0452577254273],[-114.060745242348,51.0452908321255]]},"properties":{"id":"calgary:parking-zone:845","jurisdiction":"ca-ab-calgary","timezone":"America/Edmonton","category":"parking","color":"#228064","label":"Parking Zone","street":"1 St SE ,  Fr 8 Av SE To 9 Av SE","max_stay_minutes":30,"enforceable_time":"0710-1750 MON-FRI, 0910-1750 SAT","parking_restrict_time":"none","source_id":845,"source_url":"https://data.calgary.ca/d/rhkg-vwwp","source_retrieved_at":"2026-09-23T00:27:48.252309+00:00","verification":"city_record_only"}},{"type":"Feature","id":"calgary:parking-zone:1274","geometry":{"type":"LineString","coordinates":[[-114.06130268944,51.0433271990568],[-114.061009229243,51.0433188339314]]},"properties":{"id":"calgary:parking-zone:1274","jurisdiction":"ca-ab-calgary","timezone":"America/Edmonton","category":"parking","color":"#228064","label":"Parking Zone","street":"10 Av SE ,  Fr Centre St S To 1 St SE","max_stay_minutes":20,"enforceable_time":"0910-1750 MON-FRI","parking_restrict_time":"none","source_id":1274,"source_url":"https://data.calgary.ca/d/rhkg-vwwp","source_retrieved_at":"2026-09-23T00:27:48.252309+00:00","verification":"city_record_only"}},{"type":"Feature","id":"calgary:parking-zone:17007","geometry":{"type":"LineString","coordinates":[[-114.06318540393,51.0447731141862],[-114.063185722685,51.0447757569959],[-114.063185751278,51.0447852438475],[-114.063176092416,51.0449204007387]]},"properties":{"id":"calgary:parking-zone:17007","jurisdiction":"ca-ab-calgary","timezone":"America/Edmonton","category":"loading","color":"#e9a324","label":"Loading Zone","street":"Centre St S ,  Fr 8 Av SW To 9 Av SW","max_stay_minutes":20,"enforceable_time":"0001-2359 MON-SUN","parking_restrict_time":"none","source_id":17007,"source_url":"https://data.calgary.ca/d/rhkg-vwwp","source_retrieved_at":"2026-09-23T00:27:48.252309+00:00","verification":"city_record_only"}},{"type":"Feature","id":"calgary:parking-zone:777","geometry":{"type":"LineString","coordinates":[[-114.064839032682,51.0434279454782],[-114.064612525635,51.0434214949207]]},"properties":{"id":"calgary:parking-zone:777","jurisdiction":"ca-ab-calgary","timezone":"America/Edmonton","category":"parking","color":"#228064","label":"Parking Zone","street":"10 Av SW ,  Fr Centre St S To 1 St SW","max_stay_minutes":120,"enforceable_time":"0910-1750 MON-FRI","parking_restrict_time":"none","source_id":777,"source_url":"https://data.calgary.ca/d/rhkg-vwwp","source_retrieved_at":"2026-09-23T00:27:48.252309+00:00","verification":"city_record_only"}},{"type":"Feature","id":"calgary:parking-zone:734","geometry":{"type":"LineString","coordinates":[[-114.062936407957,51.0433737552242],[-114.062528982336,51.0433621470027]]},"properties":{"id":"calgary:parking-zone:734","jurisdiction":"ca-ab-calgary","timezone":"America/Edmonton","category":"parking","color":"#228064","label":"Parking Zone","street":"10 Av SE ,  Fr Centre St S To 1 St SE","max_stay_minutes":120,"enforceable_time":"0910-1750 MON-FRI","parking_restrict_time":"none","source_id":734,"source_url":"https://data.calgary.ca/d/rhkg-vwwp","source_retrieved_at":"2026-09-23T00:27:48.252309+00:00","verification":"city_record_only"}},{"type":"Feature","id":"calgary:parking-zone:17150","geometry":{"type":"LineString","coordinates":[[-114.062941402414,51.0451315964297],[-114.062959816714,51.044876552243]]},"properties":{"id":"calgary:parking-zone:17150","jurisdiction":"ca-ab-calgary","timezone":"America/Edmonton","category":"loading","color":"#e9a324","label":"Loading Zone","street":"Centre St S ,  Fr 8 Av SE To 9 Av SE","max_stay_minutes":20,"enforceable_time":"0001-2359 MON-SUN","parking_restrict_time":"none","source_id":17150,"source_url":"https://data.calgary.ca/d/rhkg-vwwp","source_retrieved_at":"2026-09-23T00:27:48.252309+00:00","verification":"city_record_only"}},{"type":"Feature","id":"calgary:parking-zone:18882","geometry":{"type":"LineString","coordinates":[[-114.065145569285,51.0445922380016],[-114.065371863922,51.0445986840488],[-114.065377353364,51.044599068436],[-114.065381730063,51.0446001699273],[-114.065386166812,51.0446023942027]]},"properties":{"id":"calgary:parking-zone:18882","jurisdiction":"ca-ab-calgary","timezone":"America/Edmonton","category":"taxi","color":"#805ac9","label":"Taxi Zone","street":"9 Av SW ,  Fr Centre St S To 1 St SW","max_stay_minutes":1440,"enforceable_time":"0001-2359 MON-SUN","parking_restrict_time":"none","source_id":18882,"source_url":"https://data.calgary.ca/d/rhkg-vwwp","source_retrieved_at":"2026-09-23T00:27:48.252309+00:00","verification":"city_record_only"}},{"type":"Feature","id":"calgary:parking-zone:17151","geometry":{"type":"LineString","coordinates":[[-114.061608579471,51.0444670140598],[-114.061623067041,51.044464000255],[-114.061640493351,51.0444617912778],[-114.061674683668,51.0444601380088],[-114.061868139445,51.0444655374857]]},"properties":{"id":"calgary:parking-zone:17151","jurisdiction":"ca-ab-calgary","timezone":"America/Edmonton","category":"loading","color":"#e9a324","label":"Loading Zone","street":"9 Av SE ,  Fr 1 St SE To Centre St S","max_stay_minutes":20,"enforceable_time":"0001-2359 MON-SUN","parking_restrict_time":"none","source_id":17151,"source_url":"https://data.calgary.ca/d/rhkg-vwwp","source_retrieved_at":"2026-09-23T00:27:48.252309+00:00","verification":"city_record_only"}},{"type":"Feature","id":"calgary:parking-zone:13441","geometry":{"type":"LineString","coordinates":[[-114.06509747821539,51.04331],[-114.065304731389,51.043316050752]]},"properties":{"id":"calgary:parking-zone:13441","jurisdiction":"ca-ab-calgary","timezone":"America/Edmonton","category":"parking","color":"#228064","label":"Parking Zone","street":"10 Av SW ,  Fr 1 St Sw To Centre St S","max_stay_minutes":120,"enforceable_time":"0910-1750 MON-FRI","parking_restrict_time":"none","source_id":13441,"source_url":"https://data.calgary.ca/d/rhkg-vwwp","source_retrieved_at":"2026-09-23T00:27:48.252309+00:00","verification":"city_record_only"}},{"type":"Feature","id":"calgary:parking-zone:16993","geometry":{"type":"LineString","coordinates":[[-114.064457485883,51.0445726353096],[-114.065145569285,51.0445922380016]]},"properties":{"id":"calgary:parking-zone:16993","jurisdiction":"ca-ab-calgary","timezone":"America/Edmonton","category":"loading","color":"#e9a324","label":"Loading Zone","street":"9 Av SW ,  Fr Centre St S To 1 St SW","max_stay_minutes":20,"enforceable_time":"0001-2359 MON-SUN","parking_restrict_time":"none","source_id":16993,"source_url":"https://data.calgary.ca/d/rhkg-vwwp","source_retrieved_at":"2026-09-23T00:27:48.252309+00:00","verification":"city_record_only"}},{"type":"Feature","id":"calgary:parking-zone:992","geometry":{"type":"LineString","coordinates":[[-114.06331345196,51.0445400354598],[-114.064185309132,51.0445648804185]]},"properties":{"id":"calgary:parking-zone:992","jurisdiction":"ca-ab-calgary","timezone":"America/Edmonton","category":"loading","color":"#e9a324","label":"Registered Loading Zone","street":"9 Av SW ,  Fr Centre St S To 1 St SW","max_stay_minutes":20,"enforceable_time":"0001-2359 MON-SUN","parking_restrict_time":"none","source_id":992,"source_url":"https://data.calgary.ca/d/rhkg-vwwp","source_retrieved_at":"2026-09-23T00:27:48.252309+00:00","verification":"city_record_only"}},{"type":"Feature","id":"calgary:parking-zone:586","geometry":{"type":"LineString","coordinates":[[-114.065200234022,51.0447372479045],[-114.064398195543,51.0447141790061]]},"properties":{"id":"calgary:parking-zone:586","jurisdiction":"ca-ab-calgary","timezone":"America/Edmonton","category":"parking","color":"#228064","label":"Parking Zone","street":"9 Av SW ,  Fr Centre St S To 1 St SW","max_stay_minutes":120,"enforceable_time":"0710-1750 MON-FRI, 0910-1750 SAT","parking_restrict_time":"none","source_id":586,"source_url":"https://data.calgary.ca/d/rhkg-vwwp","source_retrieved_at":"2026-09-23T00:27:48.252309+00:00","verification":"city_record_only"}},{"type":"Feature","id":"calgary:parking-zone:526","geometry":{"type":"LineString","coordinates":[[-114.061868139445,51.0444655374857],[-114.061914989976,51.044466872824],[-114.061971733429,51.0444684905702],[-114.062118183525,51.0444727305987],[-114.06215507785,51.0444765675812],[-114.062180317364,51.0444817178605],[-114.062196765936,51.044486313651],[-114.062237033154,51.0444999188569]]},"properties":{"id":"calgary:parking-zone:526","jurisdiction":"ca-ab-calgary","timezone":"America/Edmonton","category":"parking","color":"#228064","label":"Parking Zone","street":"9 Av SE ,  Fr 1 St SE To Centre St S","max_stay_minutes":120,"enforceable_time":"0710-1750 MON-FRI, 0910-1750 SAT","parking_restrict_time":"none","source_id":526,"source_url":"https://data.calgary.ca/d/rhkg-vwwp","source_retrieved_at":"2026-09-23T00:27:48.252309+00:00","verification":"city_record_only"}},{"type":"Feature","id":"calgary:parking-zone:18889","geometry":{"type":"LineString","coordinates":[[-114.063176092416,51.0449204007387],[-114.063168188207,51.0450308618775]]},"properties":{"id":"calgary:parking-zone:18889","jurisdiction":"ca-ab-calgary","timezone":"America/Edmonton","category":"taxi","color":"#805ac9","label":"Taxi Zone","street":"Centre St S ,  Fr 8 Av SW To 9 Av SW","max_stay_minutes":1440,"enforceable_time":"0001-2359 MON-SUN","parking_restrict_time":"none","source_id":18889,"source_url":"https://data.calgary.ca/d/rhkg-vwwp","source_retrieved_at":"2026-09-23T00:27:48.252309+00:00","verification":"city_record_only"}},{"type":"Feature","id":"calgary:parking-zone:867","geometry":{"type":"LineString","coordinates":[[-114.064437062294,51.0434164991011],[-114.064189186999,51.0434094401088]]},"properties":{"id":"calgary:parking-zone:867","jurisdiction":"ca-ab-calgary","timezone":"America/Edmonton","category":"parking","color":"#228064","label":"Parking Zone","street":"10 Av SW ,  Fr Centre St S To 1 St SW","max_stay_minutes":120,"enforceable_time":"0910-1750 MON-FRI","parking_restrict_time":"none","source_id":867,"source_url":"https://data.calgary.ca/d/rhkg-vwwp","source_retrieved_at":"2026-09-23T00:27:48.252309+00:00","verification":"city_record_only"}},{"type":"Feature","id":"calgary:parking-zone:17123","geometry":{"type":"LineString","coordinates":[[-114.061530881191,51.0433337036864],[-114.061304375058,51.0433272467173]]},"properties":{"id":"calgary:parking-zone:17123","jurisdiction":"ca-ab-calgary","timezone":"America/Edmonton","category":"loading","color":"#e9a324","label":"Loading Zone","street":"10 Av SE ,  Fr Centre St S To 1 St SE","max_stay_minutes":120,"enforceable_time":"0001-2359 MON-SUN","parking_restrict_time":"none","source_id":17123,"source_url":"https://data.calgary.ca/d/rhkg-vwwp","source_retrieved_at":"2026-09-23T00:27:48.252309+00:00","verification":"city_record_only"}},{"type":"Feature","id":"calgary:parking-zone:17037","geometry":{"type":"LineString","coordinates":[[-114.065265041276,51.0434400746563],[-114.065039958767,51.0434336663834]]},"properties":{"id":"calgary:parking-zone:17037","jurisdiction":"ca-ab-calgary","timezone":"America/Edmonton","category":"loading","color":"#e9a324","label":"Loading Zone","street":"10 Av SW ,  Fr Centre St S To 1 St SW","max_stay_minutes":20,"enforceable_time":"0001-2359 MON-SUN","parking_restrict_time":"none","source_id":17037,"source_url":"https://data.calgary.ca/d/rhkg-vwwp","source_retrieved_at":"2026-09-23T00:27:48.252309+00:00","verification":"city_record_only"}},{"type":"Feature","id":"calgary:parking-zone:249","geometry":{"type":"LineString","coordinates":[[-114.065617958553,51.0451990469367],[-114.065602687526,51.0454136854081]]},"properties":{"id":"calgary:parking-zone:249","jurisdiction":"ca-ab-calgary","timezone":"America/Edmonton","category":"parking","color":"#228064","label":"Parking Zone","street":"1 St SW ,  Fr 8 Av SW To 9 Av SW","max_stay_minutes":60,"enforceable_time":"0840-1520 MON-FRI, 0910-1750 SAT","parking_restrict_time":"07:00 - 08:30 , 15:30 - 18:00","source_id":249,"source_url":"https://data.calgary.ca/d/rhkg-vwwp","source_retrieved_at":"2026-09-23T00:27:48.252309+00:00","verification":"city_record_only"}}]}
