{"type":"FeatureCollection","name":"Calgary Tower active parking sign inventory","source":"https://data.calgary.ca/d/u6ce-yibw","retrieved_at":"2026-09-23T02:31:03.114186+00:00","bounds":[-114.06565,51.04331,-114.06062,51.04561],"selection":"Parking-related sign blades on as-built posts; both sign and post must be active","features":[{"type":"Feature","id":"1109008165","geometry":{"type":"Point","coordinates":[-114.06219796140205,51.04468392089372]},"properties":{"post_id":"1109008165","verification":"city_record_only","signs":[{"id":"1109162870","type":"Parking Restrictions","text":null,"code":"SG_04-004_30X45_H","facing":"W","installed":"2005-07-01"},{"id":"1109681198","type":"Snow Route","text":"NS Snow Route 2100-0600","code":"SG_10-220_30X45_H","facing":"SW","installed":"2012-06-29"}]}},{"type":"Feature","id":"1109008730","geometry":{"type":"Point","coordinates":[-114.06464787702885,51.04456142963753]},"properties":{"post_id":"1109008730","verification":"city_record_only","signs":[{"id":"1109099876","type":"Loading Zone","text":null,"code":"SG_10-023_30X60_H","facing":"NW","installed":"2007-07-01"},{"id":"1109235397","type":"Park Plus","text":"14\" ZONE 2649, DA (D. GREY)","code":"SG_SPECIAL","facing":"NW","installed":"2007-07-01"}]}},{"type":"Feature","id":"1109009084","geometry":{"type":"Point","coordinates":[-114.06393582223984,51.04552593609983]},"properties":{"post_id":"1109009084","verification":"city_record_only","signs":[{"id":"1109712921","type":"Parking Restrictions","text":null,"code":"SG_04-007_30X45_H","facing":"NE","installed":"2012-09-19"}]}},{"type":"Feature","id":"1109010183","geometry":{"type":"Point","coordinates":[-114.06323088987376,51.04559273393582]},"properties":{"post_id":"1109010183","verification":"city_record_only","signs":[{"id":"1109714539","type":"Parking Restrictions","text":null,"code":"SG_04-007_30X45_H","facing":"NE","installed":"2012-09-19"}]}},{"type":"Feature","id":"1109010565","geometry":{"type":"Point","coordinates":[-114.06316256408246,51.045469728404605]},"properties":{"post_id":"1109010565","verification":"city_record_only","signs":[{"id":"1109229629","type":"Parking Restrictions","text":"REM NSAT, DA (not retired)","code":"SG_04-003_30X30_H","facing":"N","installed":"2002-06-04"}]}},{"type":"Feature","id":"1109010797","geometry":{"type":"Point","coordinates":[-114.06079466578238,51.04471995923071]},"properties":{"post_id":"1109010797","verification":"city_record_only","signs":[{"id":"1109229898","type":"Parking Restrictions","text":"INS NSAT + TOW AWAY AL","code":"SG_04-004_30X45_H","facing":"NE","installed":"2009-10-01"},{"id":"1109229914","type":"Parking Restrictions","text":"INS NPAT + TOW AWAY AR","code":"SG_03-005_30X45_H","facing":"NE","installed":"2009-10-01"}]}},{"type":"Feature","id":"1109011284","geometry":{"type":"Point","coordinates":[-114.0640517919969,51.04453449015997]},"properties":{"post_id":"1109011284","verification":"city_record_only","signs":[{"id":"1109661547","type":"Snow Route","text":"NS SNOW ROUT E 2100-0600","code":"SG_10-220_30X45_H","facing":"NW","installed":"2012-07-01"}]}},{"type":"Feature","id":"1109011600","geometry":{"type":"Point","coordinates":[-114.06163882262304,51.04544680901579]},"properties":{"post_id":"1109011600","verification":"city_record_only","signs":[{"id":"1109166950","type":"Parking Restrictions","text":null,"code":"SG_04-007_30X45_H","facing":"NE","installed":"2005-07-01"}]}},{"type":"Feature","id":"1109011959","geometry":{"type":"Point","coordinates":[-114.06093317521261,51.04462123825483]},"properties":{"post_id":"1109011959","verification":"city_record_only","signs":[{"id":"1109162119","type":"Parking Restrictions","text":null,"code":"SG_04-007_30X45_H","facing":"SW","installed":"2002-07-01"}]}},{"type":"Feature","id":"1109012228","geometry":{"type":"Point","coordinates":[-114.06562723938289,51.0450631510663]},"properties":{"post_id":"1109012228","verification":"city_record_only","signs":[{"id":"1109139671","type":"Parking Restrictions","text":"INS NPAT + TOW AWAY AR ON EXISTING POLE","code":"SG_03-005_30X45_H","facing":"NE","installed":"2007-07-01"},{"id":"1109655529","type":"Parking Restrictions","text":"NSAT DA 0700-0830 1530-1800 MON-FRI","code":"SG_04-347_30X60_H","facing":"NE","installed":"2011-07-14"}]}},{"type":"Feature","id":"1109012371","geometry":{"type":"Point","coordinates":[-114.06321700073028,51.04450902545668]},"properties":{"post_id":"1109012371","verification":"city_record_only","signs":[{"id":"1109198808","type":"Parking Restrictions","text":null,"code":"SG_03-007_30X45_H","facing":"NW","installed":"2004-07-01"}]}},{"type":"Feature","id":"1109013336","geometry":{"type":"Point","coordinates":[-114.06323417626277,51.04550629407791]},"properties":{"post_id":"1109013336","verification":"city_record_only","signs":[{"id":"1109713018","type":"Parking Restrictions","text":null,"code":"SG_04-007_30X45_H","facing":"NE","installed":"2012-09-19"}]}},{"type":"Feature","id":"1109013659","geometry":{"type":"Point","coordinates":[-114.06107652376215,51.04446045305341]},"properties":{"post_id":"1109013659","verification":"city_record_only","signs":[{"id":"1109159860","type":"Parking Restrictions","text":null,"code":"SG_04-007_30X45_H","facing":"W","installed":"2005-07-01"}]}},{"type":"Feature","id":"1109013874","geometry":{"type":"Point","coordinates":[-114.06290969186504,51.04511584818815]},"properties":{"post_id":"1109013874","verification":"city_record_only","signs":[{"id":"1109135197","type":"Park Plus","text":"14\" ZONE 2530 AR, (D.GREY)","code":"SG_SPECIAL_SPECIAL_H","facing":"SW","installed":"2007-07-20"},{"id":"1109229642","type":"Parking Restrictions","text":"NPAT + TOW AWAY AL","code":"SG_03-004_30X45_H","facing":"SW","installed":"2013-01-04"},{"id":"1109229808","type":"Loading Zone","text":"20 MIN LZ AR ON EXISTING BP","code":"SG_10-022_30X60_H","facing":"SW","installed":"2007-07-20"}]}},{"type":"Feature","id":"1109015264","geometry":{"type":"Point","coordinates":[-114.06076245427198,51.04425152181645]},"properties":{"post_id":"1109015264","verification":"city_record_only","signs":[{"id":"1109099105","type":"Parking Restrictions","text":null,"code":"SG_04-003_30X30_H","facing":"NE","installed":"2002-07-01"},{"id":"1109107315","type":"Parking Restrictions","text":null,"code":"SG_03-007_30X45_H","facing":"NE","installed":"2002-07-01"}]}},{"type":"Feature","id":"1109015664","geometry":{"type":"Point","coordinates":[-114.06536903907617,51.04458402246817]},"properties":{"post_id":"1109015664","verification":"city_record_only","signs":[{"id":"1109235394","type":"Parking Restrictions","text":"NSAT tow away AR","code":"SG_04-006_30X45_H","facing":"NW","installed":"2007-07-01"},{"id":"1109628469","type":"Parking Restrictions","text":"COVER 3 CAR","code":"SG_10-147_30X45_H","facing":"NW","installed":"2010-08-19"},{"id":"1109628520","type":"Park Plus","text":"14\" ZONE 2648, AL (D GREY)","code":"SG_SPECIAL","facing":"NW","installed":"2010-08-19"},{"id":"1109681193","type":"Snow Route","text":"NS Snow Route 2100-0600","code":"SG_10-220_30X45_H","facing":"NW","installed":"2011-11-01"}]}},{"type":"Feature","id":"1109016171","geometry":{"type":"Point","coordinates":[-114.06564200420182,51.04516756662245]},"properties":{"post_id":"1109016171","verification":"city_record_only","signs":[{"id":"1109129265","type":"Parking Restrictions","text":"IN ALLEY","code":"SG_03-000_30X30_H","facing":"E","installed":"2009-10-29"}]}},{"type":"Feature","id":"1109016408","geometry":{"type":"Point","coordinates":[-114.06151400217945,51.04446732461637]},"properties":{"post_id":"1109016408","verification":"city_record_only","signs":[{"id":"1109095834","type":"Parking Restrictions","text":null,"code":"SG_04-005_30X45_H","facing":"W","installed":"2005-07-01"},{"id":"1109107759","type":"Parking Restrictions","text":null,"code":"SG_03-006_30X45_H","facing":"W","installed":"2005-07-01"}]}},{"type":"Feature","id":"1109016864","geometry":{"type":"Point","coordinates":[-114.06081809696677,51.04348785710272]},"properties":{"post_id":"1109016864","verification":"city_record_only","signs":[{"id":"1109099021","type":"Parking Restrictions","text":null,"code":"SG_04-007_30X45_H","facing":"NE","installed":"2017-01-03"}]}},{"type":"Feature","id":"1109017361","geometry":{"type":"Point","coordinates":[-114.06512697140582,51.04457488828775]},"properties":{"post_id":"1109017361","verification":"city_record_only","signs":[{"id":"1109167548","type":"Loading Zone","text":"MAKE LZ, AL","code":"SG_10-023_30X60_H","facing":"NW","installed":"2010-08-19"},{"id":"1109628470","type":"Parking Restrictions","text":"COVER 3 CAR","code":"SG_10-148_30X45_H","facing":"NW","installed":"2010-08-19"},{"id":"1109628523","type":"Park Plus","text":"24\" ZONE 2648, AR (D GREY), ZONE 2649, AL (D GREY)","code":"SG_SPECIAL","facing":"NW","installed":"2010-08-19"}]}},{"type":"Feature","id":"1109018043","geometry":{"type":"Point","coordinates":[-114.06292207307885,51.04487481417551]},"properties":{"post_id":"1109018043","verification":"city_record_only","signs":[{"id":"1109229583","type":"Parking Restrictions","text":"INS NSAT + TOW AWAY AR","code":"SG_04-006_30X45_H","facing":"SW","installed":"2007-07-20"},{"id":"1109229873","type":"Park Plus","text":"2530","code":"SG_SPECIAL_SPECIAL_H","facing":"SW","installed":"2007-07-20"},{"id":"1109229879","type":"Loading Zone","text":"INS 20 MIN LZ AL ON SLS","code":"SG_10-021_30X60_H","facing":"SW","installed":"2013-05-08"}]}},{"type":"Feature","id":"1109018960","geometry":{"type":"Point","coordinates":[-114.06457622009893,51.045543766668025]},"properties":{"post_id":"1109018960","verification":"city_record_only","signs":[{"id":"1109714538","type":"Parking Restrictions","text":null,"code":"SG_04-007_30X45_H","facing":"NE","installed":"2012-09-19"}]}},{"type":"Feature","id":"1109020061","geometry":{"type":"Point","coordinates":[-114.0618606781033,51.04445492189876]},"properties":{"post_id":"1109020061","verification":"city_record_only","signs":[{"id":"1110090971","type":"Park Plus","text":"ZONE 2654 AL DARK GREY/2653 AR BLUE","code":"SG_22-448_60X20_H","facing":"NW/SE","installed":"2017-07-27"},{"id":"1110090972","type":"Loading Zone","text":"LZ AL 20 MIN MAX","code":"SG_10-021_30X60_H","facing":"NW","installed":"2017-07-27"},{"id":"1110255055","type":"Park Plus","text":"2HR 0700-1800 M-SAT AR PAY REQ","code":"SG_21-302_30X45_H","facing":"NW","installed":"2019-12-11"}]}},{"type":"Feature","id":"1109020295","geometry":{"type":"Point","coordinates":[-114.06205668105552,51.044682519877156]},"properties":{"post_id":"1109020295","verification":"city_record_only","signs":[{"id":"1109160322","type":"Residential Parking","text":"TAXI ONLY, 2 CAR, AL","code":"SG_SPECIAL","facing":"W","installed":"2007-07-01"}]}},{"type":"Feature","id":"1109020353","geometry":{"type":"Point","coordinates":[-114.06238808463837,51.044682343449495]},"properties":{"post_id":"1109020353","verification":"city_record_only","signs":[{"id":"1109179309","type":"Parking Restrictions","text":null,"code":"SG_10-143_30X45_H","facing":"W","installed":"2007-07-01"}]}},{"type":"Feature","id":"1109020561","geometry":{"type":"Point","coordinates":[-114.06500429875804,51.04555490587756]},"properties":{"post_id":"1109020561","verification":"city_record_only","signs":[{"id":"1109712918","type":"Parking Restrictions","text":null,"code":"SG_04-007_30X45_H","facing":"NE","installed":"2012-09-19"}]}},{"type":"Feature","id":"1109036079","geometry":{"type":"Point","coordinates":[-114.06081012092503,51.04543626484766]},"properties":{"post_id":"1109036079","verification":"city_record_only","signs":[{"id":"1109713096","type":"Parking Restrictions","text":null,"code":"SG_04-007_30X45_H","facing":"NE","installed":"2012-09-19"}]}},{"type":"Feature","id":"1109036086","geometry":{"type":"Point","coordinates":[-114.0632156488021,51.045103092986395]},"properties":{"post_id":"1109036086","verification":"city_record_only","signs":[{"id":"1109167028","type":"Parking Restrictions","text":null,"code":"SG_03-073_30X45_H","facing":"E","installed":"2007-07-01"}]}},{"type":"Feature","id":"1109037561","geometry":{"type":"Point","coordinates":[-114.06517625616235,51.043450017480225]},"properties":{"post_id":"1109037561","verification":"city_record_only","signs":[{"id":"1109228849","type":"Parking Restrictions","text":null,"code":"SG_04-005_30X45_H","facing":"SE","installed":"2007-07-01"},{"id":"1109958587","type":"Park Plus","text":"14\" ZONE 2935 AR (D. GREY)","code":"SG_22-208_35X20_H","facing":"SE","installed":"2015-07-22"},{"id":"1109958588","type":"Loading Zone","text":null,"code":"SG_10-022_30X60_H","facing":"SE","installed":"2015-07-22"}]}},{"type":"Feature","id":"1109064458","geometry":{"type":"Point","coordinates":[-114.06289891503998,51.04534121491799]},"properties":{"post_id":"1109064458","verification":"city_record_only","signs":[{"id":"1109229842","type":"Park Plus","text":"14\" ZONE 2529 AR (D.GREY)","code":"SG_SPECIAL_SPECIAL_H","facing":"SW","installed":"2007-07-20"},{"id":"1109229866","type":"Parking Restrictions","text":"TAXI ZONE 3 CARS AR ON EXISTING BP","code":"SG_10-148_30X45_H","facing":"SW","installed":"2007-07-20"},{"id":"1109229999","type":"Parking Restrictions","text":"NSAT + TOW AWAY AL","code":"SG_04-004_30X45_H","facing":"SW","installed":"2007-07-20"}]}},{"type":"Feature","id":"1109068453","geometry":{"type":"Point","coordinates":[-114.06563101770355,51.045206920855996]},"properties":{"post_id":"1109068453","verification":"city_record_only","signs":[{"id":"1109136881","type":"Parking Restrictions","text":"INS NSAT 0700-0830 & 1530-1800, M-F,  DA + TOWAWAY, ON EXISTING POLE","code":"SG_04-347_30X60_H","facing":"NE","installed":"2007-07-20"},{"id":"1109147601","type":"Park Plus","text":"INS 14\" ZONE 2495 AR (BROWN)","code":"SG_SPECIAL_SPECIAL_H","facing":"NE","installed":"2007-07-20"},{"id":"1109228476","type":"Parking Restrictions","text":"INS NPAT + TOW AWAY AL ON EXISTING POLE","code":"SG_03-004_30X45_H","facing":"NE","installed":"2007-07-20"},{"id":"1110024872","type":"Timed Parking","text":"1 HR, 0830-1800, M-F, 0900-1800, SAT, PAY REQD, AR,","code":"SG_SPECIAL","facing":"NE","installed":"2016-08-02"}]}},{"type":"Feature","id":"1109076562","geometry":{"type":"Point","coordinates":[-114.06560937563516,51.045408887366975]},"properties":{"post_id":"1109076562","verification":"city_record_only","signs":[{"id":"1109104135","type":"Park Plus","text":"INS 14\" ZONE 2494, AR (D. GREY)","code":"SG_SPECIAL_SPECIAL_H","facing":"NE","installed":"2007-07-20"},{"id":"1109228058","type":"Park Plus","text":"INS 14\" ZONE 2495, AL (BROWN)","code":"SG_SPECIAL_SPECIAL_H","facing":"NE","installed":"2007-07-20"},{"id":"1109228498","type":"Loading Zone","text":"INS 20 MIN LZ AR, ON EXISTING POLE","code":"SG_10-022_30X60_H","facing":"NE","installed":"2007-07-20"},{"id":"1109228579","type":"Parking Restrictions","text":"INS (NS 0700-0830, 15:30-1800 AR tow away) PEAK HOUR RESTRICTIONS","code":"SG_04-347_30X60_H","facing":"NE","installed":"2007-07-01"},{"id":"1110024873","type":"Timed Parking","text":"1 HR, 0830-1800, M-F, 0900-1800, SAT, PAY REQD, AL, ON SLS","code":"SG_SPECIAL","facing":"NE","installed":"2016-08-02"}]}},{"type":"Feature","id":"1109076563","geometry":{"type":"Point","coordinates":[-114.06560462398146,51.045496763776804]},"properties":{"post_id":"1109076563","verification":"city_record_only","signs":[{"id":"1109099976","type":"Park Plus","text":"INS 14\" ZONE 2494, AL (D. GREY)","code":"SG_SPECIAL_SPECIAL_H","facing":"NE","installed":"2013-01-18"},{"id":"1109127425","type":"Loading Zone","text":"INS 20 MIN LZ AL ON SLS","code":"SG_10-021_30X60_H","facing":"NE","installed":"2013-11-07"},{"id":"1109130834","type":"Parking Restrictions","text":"INS NSAT AR + TOWAWAY","code":"SG_04-006_30X45_H","facing":"NE","installed":"2013-11-07"}]}},{"type":"Feature","id":"1109080571","geometry":{"type":"Point","coordinates":[-114.06442273054849,51.04455592727834]},"properties":{"post_id":"1109080571","verification":"city_record_only","signs":[{"id":"1109099727","type":"Loading Zone","text":"LZ AR","code":"SG_10-022_30X60_H","facing":"NW","installed":"2007-07-01"},{"id":"1109235398","type":"Parking Restrictions","text":"NPAT tow away AL","code":"SG_03-005_30X45_H","facing":"NW","installed":"2007-07-01"},{"id":"1109235399","type":"Park Plus","text":"14\" ZONE 2649, AR (D. GREY)","code":"SG_SPECIAL","facing":"NW","installed":"2016-03-02"}]}},{"type":"Feature","id":"1109081827","geometry":{"type":"Point","coordinates":[-114.06314843050748,51.0454269880629]},"properties":{"post_id":"1109081827","verification":"city_record_only","signs":[{"id":"1109165863","type":"Parking Restrictions","text":"INS NSAT, AR + TOW AWAY","code":"SG_04-006_30X45_H","facing":"NE","installed":"2007-07-20"},{"id":"1109229840","type":"Park Plus","text":"14\" ZONE 2508, AL [BLUE]","code":"SG_SPECIAL_SPECIAL_H","facing":"NE","installed":"2007-07-20"},{"id":"1110285795","type":"Park Plus","text":"'2HP, 07:00-18:00, MON - SAT, PAY REQD, AL'","code":"SG_21-301_30X45_H","facing":"NE","installed":"2020-07-09"}]}},{"type":"Feature","id":"1109085147","geometry":{"type":"Point","coordinates":[-114.06290420313202,51.04526237750496]},"properties":{"post_id":"1109085147","verification":"city_record_only","signs":[{"id":"1109229630","type":"Parking Restrictions","text":"TAXI ZONE 1 CAR AL","code":"SG_10-147_30X45_H","facing":"SW","installed":"2019-07-19"},{"id":"1109229643","type":"Parking Restrictions","text":"NPAT + TOW AWAY AR","code":"SG_03-005_30X45_H","facing":"SW","installed":"2019-07-19"},{"id":"1109229712","type":"Park Plus","text":"14\" ZONE 2529, AL (D.GREY)","code":"SG_SPECIAL_SPECIAL_H","facing":"SW","installed":"2019-08-22"}]}},{"type":"Feature","id":"1109085158","geometry":{"type":"Point","coordinates":[-114.06281185259066,51.04480750978805]},"properties":{"post_id":"1109085158","verification":"city_record_only","signs":[{"id":"1109107548","type":"Parking Restrictions","text":null,"code":"SG_03-063_30X45_H","facing":"S","installed":"2005-07-01"}]}},{"type":"Feature","id":"1109085247","geometry":{"type":"Point","coordinates":[-114.06542616886709,51.044941722591794]},"properties":{"post_id":"1109085247","verification":"city_record_only","signs":[{"id":"1110404287","type":"Parking Restrictions","text":null,"code":"SG_03-007_30X45_H","facing":"SW","installed":"2022-12-16"}]}},{"type":"Feature","id":"1109085453","geometry":{"type":"Point","coordinates":[-114.06156610021853,51.044669570703654]},"properties":{"post_id":"1109085453","verification":"city_record_only","signs":[{"id":"1110079453","type":"Park Plus","text":"2525 DA BLUE","code":"SG_22-304_35X20_H","facing":"NE/SW","installed":"2017-06-06"},{"id":"1110255052","type":"Park Plus","text":"2HR 0700-1800 M-SAT DA PAY REQ","code":"SG_21-303_30X45_H","facing":"SW","installed":"2019-12-11"}]}},{"type":"Feature","id":"1109085461","geometry":{"type":"Point","coordinates":[-114.06283031273047,51.045491479246245]},"properties":{"post_id":"1109085461","verification":"city_record_only","signs":[{"id":"1109714540","type":"Parking Restrictions","text":null,"code":"SG_04-007_30X45_H","facing":"NE","installed":"2012-09-19"}]}},{"type":"Feature","id":"1109085462","geometry":{"type":"Point","coordinates":[-114.06528287975847,51.045560254123664]},"properties":{"post_id":"1109085462","verification":"city_record_only","signs":[{"id":"1109712917","type":"Parking Restrictions","text":"NOT HERE ANY MORE","code":"SG_04-007_30X45_H","facing":"NE","installed":"2012-09-19"}]}},{"type":"Feature","id":"1109085481","geometry":{"type":"Point","coordinates":[-114.06281700400515,51.04557863376973]},"properties":{"post_id":"1109085481","verification":"city_record_only","signs":[{"id":"1109713019","type":"Parking Restrictions","text":null,"code":"SG_04-007_30X45_H","facing":"SE","installed":"2012-09-19"}]}},{"type":"Feature","id":"1109086275","geometry":{"type":"Point","coordinates":[-114.06482676927298,51.04344293735209]},"properties":{"post_id":"1109086275","verification":"city_record_only","signs":[{"id":"1109950685","type":"Parking Restrictions","text":null,"code":"SG_03-005_30X45_H","facing":"SE","installed":"2015-07-22"},{"id":"1109958574","type":"Park Plus","text":"14\" ZONE 2936 AR (BLUE)","code":"SG_22-204_35X20_H","facing":"SE","installed":"2015-07-22"},{"id":"1110203871","type":"Parking Restrictions","text":"2HR 0900-1800 M-F AR PAY REQ","code":"SG_SPECIAL_SPECIAL_H","facing":"NW/SE","installed":"2020-02-16"}]}},{"type":"Feature","id":"1109091083","geometry":{"type":"Point","coordinates":[-114.06540699981959,51.04517881147815]},"properties":{"post_id":"1109091083","verification":"city_record_only","signs":[{"id":"1109101067","type":"Parking Restrictions","text":null,"code":"SG_03-007_30X45_H","facing":"SW","installed":"2022-05-28"}]}},{"type":"Feature","id":"1109091859","geometry":{"type":"Point","coordinates":[-114.06076419494437,51.04527793728078]},"properties":{"post_id":"1109091859","verification":"city_record_only","signs":[{"id":"1109105733","type":"Parking Restrictions","text":"INS NSAT + TOW AWAY AR","code":"SG_04-005_30X45_H","facing":"NE","installed":"2007-07-20"},{"id":"1110255385","type":"Loading Zone","text":"DLZ, 8M, MAX 20 MIN, AL","code":"SG_10-051_30X75_H","facing":"SE","installed":"2019-12-11"},{"id":"1110255396","type":"Park Plus","text":"INS 14\" ZONE 2522 AL (D.GREY)","code":"SG_22-108_35X20_H","facing":"NE","installed":"2019-12-11"}]}},{"type":"Feature","id":"1109091862","geometry":{"type":"Point","coordinates":[-114.06077836117473,51.045117399347205]},"properties":{"post_id":"1109091862","verification":"city_record_only","signs":[{"id":"1109229849","type":"Parking Restrictions","text":"INS NPAT + TOW AWAY AL","code":"SG_03-004_30X45_H","facing":"NE","installed":"2014-12-16"},{"id":"1110255391","type":"Loading Zone","text":"DLZ, 8M, MAX 20 MINS, AR","code":"SG_10-052_30X75_H","facing":"NE","installed":"2019-12-11"},{"id":"1110255398","type":"Park Plus","text":"INS 14\" ZONE 2522 AR (D.GREY)","code":"SG_22-208_35X20_H","facing":"NE","installed":"2019-12-11"}]}},{"type":"Feature","id":"1109091872","geometry":{"type":"Point","coordinates":[-114.06221670726313,51.04447866539188]},"properties":{"post_id":"1109091872","verification":"city_record_only","signs":[{"id":"1109230168","type":"Parking Restrictions","text":"NPAT + TOW AWAY AR","code":"SG_03-005_30X45_H","facing":"NW","installed":"2007-07-01"},{"id":"1109776549","type":"Park Plus","text":"ZONE 14\" ZONE 2653, AL (BLUE)","code":"SG_SPECIAL_SPECIAL_H","facing":"NW","installed":"2016-05-27"},{"id":"1110255054","type":"Park Plus","text":"2HR 0700-1800 M-SAT AL PAY REQ","code":"SG_21-301_30X45_H","facing":"NW","installed":"2019-12-11"}]}},{"type":"Feature","id":"1109091873","geometry":{"type":"Point","coordinates":[-114.06157955910642,51.04444886203819]},"properties":{"post_id":"1109091873","verification":"city_record_only","signs":[{"id":"1109111491","type":"Parking Restrictions","text":"NPAT + TOW AWAY AL","code":"SG_03-004_30X45_H","facing":"NW","installed":"2011-04-19"},{"id":"1110090969","type":"Loading Zone","text":"LZ AR 20 MIN MAX","code":"SG_10-022_30X60_H","facing":"NW","installed":"2017-07-27"},{"id":"1110090970","type":"Park Plus","text":"2654 AR DARK GREY","code":"SG_22-208_35X20_H","facing":"NW/SE","installed":"2017-07-27"}]}},{"type":"Feature","id":"1109092584","geometry":{"type":"Point","coordinates":[-114.06316561538507,51.04514008672028]},"properties":{"post_id":"1109092584","verification":"city_record_only","signs":[{"id":"1109229759","type":"Parking Restrictions","text":"NPAT, AL + TOW AWAY","code":"SG_03-005_30X45_H","facing":"NE","installed":"2007-07-20"},{"id":"1109229868","type":"Park Plus","text":"14\" ZONE 2508, AR (BLUE)","code":"SG_SPECIAL_SPECIAL_H","facing":"NE","installed":"2007-07-20"},{"id":"1110285796","type":"Park Plus","text":"2HP, 07:00-18:00, MON - SAT, PAY REQD, AR'","code":"SG_21-302_30X45_H","facing":"NE","installed":"2020-07-09"}]}},{"type":"Feature","id":"1109235401","geometry":{"type":"Point","coordinates":[-114.06417209952916,51.04454251313052]},"properties":{"post_id":"1109235401","verification":"city_record_only","signs":[{"id":"1109235405","type":"Parking Restrictions","text":"NPAT AR tow away","code":"SG_03-006_30X45_H","facing":"NW","installed":"2007-07-01"},{"id":"1109235407","type":"Park Plus","text":"14\" ZONE 2650, AL (D. GREY)","code":"SG_SPECIAL","facing":"NW","installed":"2007-07-01"},{"id":"1110250643","type":"Park Plus","text":"LZ, MAX 20MINS, LICENCE PLATE REGISTRATION, AL (30x70)","code":"SG_SPECIAL_SPECIAL_H","facing":"NW","installed":"2019-11-29"},{"id":"1110250644","type":"Loading Zone","text":"ZONE 2650 (D.GREY), LZ, NEW PARKPLUS SESSION RQD (30x60)","code":"SG_SPECIAL_SPECIAL_H","facing":"NW","installed":"2019-11-29"}]}},{"type":"Feature","id":"1109235410","geometry":{"type":"Point","coordinates":[-114.06384359092921,51.04453164914668]},"properties":{"post_id":"1109235410","verification":"city_record_only","signs":[{"id":"1109235413","type":"Park Plus","text":"14\" ZONE 2649, DA (D. GREY)","code":"SG_SPECIAL","facing":"NW","installed":"2007-07-01"},{"id":"1110250645","type":"Park Plus","text":"LZ, MAX 20MINS, LICENCE PLATE REGISTRATION, DA (30x70)","code":"SG_SPECIAL_SPECIAL_H","facing":"NW","installed":"2019-11-29"},{"id":"1110250646","type":"Loading Zone","text":"ZONE 2650 (D.GREY), LZ, NEW PARKPLUS SESSION RQD (30x60)","code":"SG_SPECIAL_SPECIAL_H","facing":"NW","installed":"2019-11-29"}]}},{"type":"Feature","id":"1109235416","geometry":{"type":"Point","coordinates":[-114.06336616146156,51.044518103425645]},"properties":{"post_id":"1109235416","verification":"city_record_only","signs":[{"id":"1109235417","type":"Parking Restrictions","text":"NSAT AR tow away","code":"SG_04-005_30X45_H","facing":"NW","installed":"2014-02-13"},{"id":"1109235419","type":"Park Plus","text":"14\" ZONE 2650, AR (D. GREY)","code":"SG_SPECIAL","facing":"NW","installed":"2007-07-01"},{"id":"1110250647","type":"Park Plus","text":"LZ, MAX 20MINS, LICENCE PLATE REGISTRATION, AR (30x70)","code":"SG_SPECIAL_SPECIAL_H","facing":"NW","installed":"2019-11-29"},{"id":"1110250648","type":"Park Plus","text":"ZONE 2650 (D.GREY), LZ, NEW PARKPLUS SESSION RQD (30x60)","code":"SG_SPECIAL_SPECIAL_H","facing":"NW","installed":"2019-11-29"}]}},{"type":"Feature","id":"1109293377","geometry":{"type":"Point","coordinates":[-114.06420197066565,51.04342691012085]},"properties":{"post_id":"1109293377","verification":"city_record_only","signs":[{"id":"1109950675","type":"Park Plus","text":"14\" ZONE 2936 AL (BLUE)","code":"SG_22-104_35X20_H","facing":"SE","installed":"2015-07-22"},{"id":"1109950678","type":"Parking Restrictions","text":null,"code":"SG_03-006_30X45_H","facing":"SE","installed":"2015-07-22"},{"id":"1110203868","type":"Parking Restrictions","text":"2HR 0900-1800 M-F AL PAY REQ","code":"SG_SPECIAL_SPECIAL_H","facing":"NW/SE","installed":"2020-02-16"}]}},{"type":"Feature","id":"1109293394","geometry":{"type":"Point","coordinates":[-114.06441779032404,51.04344003504972]},"properties":{"post_id":"1109293394","verification":"city_record_only","signs":[{"id":"1109950682","type":"Park Plus","text":"14\" ZONE 2936 AR (BLUE)","code":"SG_22-204_35X20_H","facing":"SE","installed":"2015-07-22"},{"id":"1109950684","type":"Parking Restrictions","text":null,"code":"SG_03-005_30X45_H","facing":"SE","installed":"2015-07-22"},{"id":"1110203869","type":"Parking Restrictions","text":"2HR 0900-1800 M-F AR PAY REQ","code":"SG_SPECIAL_SPECIAL_H","facing":"NW/SE","installed":"2020-02-16"}]}},{"type":"Feature","id":"1109293397","geometry":{"type":"Point","coordinates":[-114.06455529754143,51.04344316941602]},"properties":{"post_id":"1109293397","verification":"city_record_only","signs":[{"id":"1109293398","type":"Parking Restrictions","text":"NPAT + TOW AWAY AR","code":"SG_03-006_30X45_H","facing":"SE","installed":"2008-11-17"},{"id":"1109958530","type":"Park Plus","text":"14\" ZONE 2936 AL (BLUE)","code":"SG_22-104_35X20_H","facing":"SE","installed":"2015-07-22"},{"id":"1110203870","type":"Parking Restrictions","text":"2HR 0900-1800 M-F AL PAY REQ","code":"SG_SPECIAL_SPECIAL_H","facing":"NW/SE","installed":"2020-02-16"}]}},{"type":"Feature","id":"1109592000","geometry":{"type":"Point","coordinates":[-114.06292240491062,51.0433839122774]},"properties":{"post_id":"1109592000","verification":"city_record_only","signs":[{"id":"1109592002","type":"Park Plus","text":"14\" ZONE 2939, AR (BLUE)","code":"SG_SPECIAL","facing":"SE","installed":"2010-01-20"},{"id":"1109592003","type":"Parking Restrictions","text":null,"code":"SG_04-005_30X45_H","facing":"SE","installed":"2010-01-20"},{"id":"1110203867","type":"Parking Restrictions","text":"2HR 0900-1800 M-F AR PAY REQ","code":"SG_SPECIAL_SPECIAL_H","facing":"NW/SE","installed":"2020-02-16"}]}},{"type":"Feature","id":"1109592030","geometry":{"type":"Point","coordinates":[-114.06229082886662,51.04337776179434]},"properties":{"post_id":"1109592030","verification":"city_record_only","signs":[{"id":"1109592032","type":"Park Plus","text":"14\" ZONE 2939, AR (BLUE)","code":"SG_SPECIAL","facing":"SE","installed":"2010-01-20"},{"id":"1109619356","type":"Parking Restrictions","text":null,"code":"SG_03-005_30X45_H","facing":"SE","installed":"2010-06-16"},{"id":"1110203873","type":"Parking sign","text":"2HR 0900-1800 M-F AR PAY REQ","code":"SG_SPECIAL_SPECIAL_H","facing":"SE","installed":"2019-04-04"}]}},{"type":"Feature","id":"1109592034","geometry":{"type":"Point","coordinates":[-114.06150497478747,51.043343735601475]},"properties":{"post_id":"1109592034","verification":"city_record_only","signs":[{"id":"1109592037","type":"Park Plus","text":"14\" ZONE 2940, AR (GREY)","code":"SG_SPECIAL","facing":"SE","installed":"2010-01-20"},{"id":"1109619351","type":"Parking Restrictions","text":null,"code":"SG_03-001_30X30_H","facing":"SE","installed":"2010-06-16"}]}},{"type":"Feature","id":"1109592038","geometry":{"type":"Point","coordinates":[-114.06100384219641,51.04333787802683]},"properties":{"post_id":"1109592038","verification":"city_record_only","signs":[{"id":"1109951550","type":"Park Plus","text":"14\" ZONE 2941 AL (BLUE)","code":"SG_22-104_35X20_H","facing":"SE","installed":"2015-07-22"},{"id":"1109951553","type":"Parking Restrictions","text":null,"code":"SG_04-006_30X45_H","facing":"SE","installed":"2015-07-22"},{"id":"1110203875","type":"Parking Restrictions","text":"2HR 0900-1800 M-F AL PAY REQ","code":"SG_SPECIAL_SPECIAL_H","facing":"NW/SE","installed":"2020-02-16"}]}},{"type":"Feature","id":"1109592658","geometry":{"type":"Point","coordinates":[-114.06128632291643,51.04333710725746]},"properties":{"post_id":"1109592658","verification":"city_record_only","signs":[{"id":"1109592659","type":"Loading Zone","text":"MAXIMUM 10 MINUTES","code":"SG_10-021_30X60_H","facing":"SE","installed":"2010-01-20"},{"id":"1109950599","type":"Park Plus","text":"24\" ZONE 2940, AL (GREY), ZONE 2941, AR (BLUE)","code":"SG_22-484_60X20_H","facing":"SE","installed":"2015-07-22"},{"id":"1110203877","type":"Parking Restrictions","text":"2HR 0900-1800 M-F AR  PAY REQ","code":"SG_SPECIAL_SPECIAL_H","facing":"NW/SE","installed":"2020-02-16"}]}},{"type":"Feature","id":"1109619352","geometry":{"type":"Point","coordinates":[-114.06174051638003,51.0433556324899]},"properties":{"post_id":"1109619352","verification":"city_record_only","signs":[{"id":"1109619353","type":"Parking Restrictions","text":null,"code":"SG_03-002_30X30_H","facing":"SE","installed":"2010-06-16"},{"id":"1109619354","type":"Park Plus","text":"14\" ZONE 2939, AL (BLUE)","code":"SG_SPECIAL","facing":"SE","installed":"2010-06-16"},{"id":"1110203874","type":"Parking Restrictions","text":"2HR 0900-1800 M-F AL PAY REQ","code":"SG_SPECIAL_SPECIAL_H","facing":"NW/SE","installed":"2020-02-16"}]}},{"type":"Feature","id":"1109619357","geometry":{"type":"Point","coordinates":[-114.0624972551992,51.043374411694984]},"properties":{"post_id":"1109619357","verification":"city_record_only","signs":[{"id":"1109619358","type":"Parking Restrictions","text":null,"code":"SG_03-006_30X45_H","facing":"SE","installed":"2010-06-16"},{"id":"1109619360","type":"Park Plus","text":"14\" ZONE 2939, AL (BLUE)","code":"SG_SPECIAL","facing":"SE","installed":"2010-06-16"},{"id":"1110203872","type":"Parking Restrictions","text":"2HR 0900-1800 M-F AL PAY REQ","code":"SG_SPECIAL_SPECIAL_H","facing":"NW/SE","installed":"2020-02-16"}]}},{"type":"Feature","id":"1109625734","geometry":{"type":"Point","coordinates":[-114.06337738213435,51.04468670340617]},"properties":{"post_id":"1109625734","verification":"city_record_only","signs":[{"id":"1109625735","type":"Parking Restrictions","text":null,"code":"SG_04-007_30X45_H","facing":"SW","installed":"2010-09-15"}]}},{"type":"Feature","id":"1109625736","geometry":{"type":"Point","coordinates":[-114.06387788613127,51.04469856618006]},"properties":{"post_id":"1109625736","verification":"city_record_only","signs":[{"id":"1109625737","type":"Parking Restrictions","text":null,"code":"SG_04-007_30X45_H","facing":"SW","installed":"2020-01-22"}]}},{"type":"Feature","id":"1109654349","geometry":{"type":"Point","coordinates":[-114.06317650985552,51.045026309460034]},"properties":{"post_id":"1109654349","verification":"city_record_only","signs":[{"id":"1109654352","type":"Parking Restrictions","text":"NPAT + TA AR","code":"SG_03-006_30X45_H","facing":"NE","installed":"2011-05-17"},{"id":"1109654353","type":"Park Plus","text":"14\" ZONE 2509 AL (D.GREY)","code":"SG_SPECIAL_SPECIAL_H","facing":"NE","installed":"2011-05-17"},{"id":"1109662143","type":"Parking Restrictions","text":null,"code":"SG_10-144_30X45_H","facing":"NE","installed":"2011-09-21"}]}},{"type":"Feature","id":"1109654354","geometry":{"type":"Point","coordinates":[-114.06319436753144,51.044758286171415]},"properties":{"post_id":"1109654354","verification":"city_record_only","signs":[{"id":"1109654355","type":"Loading Zone","text":"20 MIN LZ AR","code":"SG_10-022_30X60_H","facing":"NE","installed":"2011-05-17"},{"id":"1109654356","type":"Parking Restrictions","text":"NSAT + TA AL","code":"SG_04-005_30X45_H","facing":"NE","installed":"2011-05-17"},{"id":"1109662139","type":"Park Plus","text":"14\" ZONE 2510 AR (D.GREY)","code":"SG_SPECIAL_SPECIAL_H","facing":"NE","installed":"2011-09-21"}]}},{"type":"Feature","id":"1109662138","geometry":{"type":"Point","coordinates":[-114.06318613089074,51.044904217381095]},"properties":{"post_id":"1109662138","verification":"city_record_only","signs":[{"id":"1109662144","type":"Park Plus","text":"24\" ZONE 2510, AL (D.GREY), ZONE 2509, AR (D.GREY)","code":"SG_SPECIAL_SPECIAL_H","facing":"NE","installed":"2011-09-21"},{"id":"1109662145","type":"Parking Restrictions","text":null,"code":"SG_10-145_30X45_H","facing":"NE","installed":"2011-09-21"},{"id":"1109662146","type":"Loading Zone","text":null,"code":"SG_10-021_30X60_H","facing":"NE","installed":"2011-09-21"}]}},{"type":"Feature","id":"1109785232","geometry":{"type":"Point","coordinates":[-114.06113409415677,51.04465807754794]},"properties":{"post_id":"1109785232","verification":"city_record_only","signs":[{"id":"1109785234","type":"Parking Restrictions","text":"NSAT TA AR","code":"SG_04-006_30X45_H","facing":"SW","installed":"2014-01-31"},{"id":"1110079455","type":"Park Plus","text":"2525 AL BLUE","code":"SG_22-104_35X20_H","facing":"NE/SW","installed":"2017-06-06"},{"id":"1110255053","type":"Park Plus","text":"2HR 0700-1800 M-SAT AL PAY REQ","code":"SG_21-301_30X45_H","facing":"SW","installed":"2019-12-11"}]}},{"type":"Feature","id":"1109950664","geometry":{"type":"Point","coordinates":[-114.06369482532286,51.04340381338601]},"properties":{"post_id":"1109950664","verification":"city_record_only","signs":[{"id":"1109950669","type":"Park Plus","text":"14\" ZONE 2936 AR (BLUE)","code":"SG_22-204_35X20_H","facing":"SE","installed":"2022-05-28"},{"id":"1109950671","type":"Parking Restrictions","text":null,"code":"SG_03-005_30X45_H","facing":"SE","installed":"2022-05-28"},{"id":"1110203866","type":"Parking Restrictions","text":"2HR 0900-1800 M-D AR PAY REQ","code":"SG_SPECIAL_SPECIAL_H","facing":"NW/SE","installed":"2020-02-16"}]}},{"type":"Feature","id":"1109958579","geometry":{"type":"Point","coordinates":[-114.06505206936399,51.04344382621384]},"properties":{"post_id":"1109958579","verification":"city_record_only","signs":[{"id":"1109958580","type":"Park Plus","text":"14\" ZONE 2935 AL (D. GREY)","code":"SG_22-108_35X20_H","facing":"SE","installed":"2015-07-22"},{"id":"1109958581","type":"Loading Zone","text":null,"code":"SG_10-021_30X60_H","facing":"SE","installed":"2015-07-22"},{"id":"1109958583","type":"Parking Restrictions","text":null,"code":"SG_03-006_30X45_H","facing":"SE","installed":"2015-07-22"}]}},{"type":"Feature","id":"1110098141","geometry":{"type":"Point","coordinates":[-114.06521982097463,51.044742711712125]},"properties":{"post_id":"1110098141","verification":"city_record_only","signs":[{"id":"1110098142","type":"Parking Restrictions","text":"TAXI HYDRANT ZONE","code":"SG_SPECIAL_SPECIAL_H","facing":"SW","installed":"2022-08-19"},{"id":"1110098143","type":"Park Plus","text":"ZONE 2511 AR BLUE","code":"SG_22-204_35X20_H","facing":"NE/SW","installed":"2022-08-19"},{"id":"1110129610","type":"Timed Parking","text":"2 HP 0700-1800, M-F, 0900-1800, SAT, PAY REQD, AR","code":"SG_SPECIAL_SPECIAL_H","facing":"SW","installed":"2022-08-19"}]}},{"type":"Feature","id":"1110098145","geometry":{"type":"Point","coordinates":[-114.06460307522094,51.04472798744085]},"properties":{"post_id":"1110098145","verification":"city_record_only","signs":[{"id":"1110098146","type":"Park Plus","text":"ZONE 2511 DA BLUE","code":"SG_22-304_35X20_H","facing":"NE/SW","installed":"2017-08-29"},{"id":"1110129611","type":"Timed Parking","text":"2 HP, 0700-1800, M-F, 0900-1800, SAT, PAY REQD, DA","code":"SG_SPECIAL_SPECIAL_H","facing":"SW","installed":"2018-01-26"}]}},{"type":"Feature","id":"1110098148","geometry":{"type":"Point","coordinates":[-114.0643612450653,51.04472705827175]},"properties":{"post_id":"1110098148","verification":"city_record_only","signs":[{"id":"1110098149","type":"Park Plus","text":"ZONE 2511 AL BLUE","code":"SG_22-104_35X20_H","facing":"NE/SW","installed":"2017-08-29"},{"id":"1110098151","type":"Parking Restrictions","text":"NSAT TOW AR","code":"SG_04-006_30X45_H","facing":"SW","installed":"2017-08-29"},{"id":"1110129612","type":"Timed Parking","text":"2 HP, 0700-1800, M-F, 0900-1800, SAT, PAY REQD, AL","code":"SG_SPECIAL_SPECIAL_H","facing":"SW","installed":"2018-01-26"}]}},{"type":"Feature","id":"1110142967","geometry":{"type":"Point","coordinates":[-114.06196832172097,51.0446852960412]},"properties":{"post_id":"1110142967","verification":"city_record_only","signs":[{"id":"1110142968","type":"Parking Restrictions","text":"NPAT AL","code":"SG_03-001_30X30_H","facing":"SW","installed":"2018-04-11"},{"id":"1110142969","type":"Park Plus","text":"2526 AR DARK GREY","code":"SG_22-204_35X20_H","facing":"NE/SW","installed":"2018-04-11"},{"id":"1110142970","type":"Loading Zone","text":"LZ AR 20MIN MAX","code":"SG_10-022_30X60_H","facing":"SW","installed":"2018-04-11"}]}},{"type":"Feature","id":"1110142971","geometry":{"type":"Point","coordinates":[-114.06182227064356,51.04468240407576]},"properties":{"post_id":"1110142971","verification":"city_record_only","signs":[{"id":"1110142972","type":"Loading Zone","text":"LZ AL 20MIN MAX","code":"SG_10-021_30X60_H","facing":"SW","installed":"2018-04-11"},{"id":"1110142973","type":"Park Plus","text":"2526 AL DARK GREY 2525 AR BLUE","code":"SG_22-448_60X20_H","facing":"NE/SW","installed":"2018-04-11"},{"id":"1110255035","type":"Park Plus","text":"2HR 0700-1800 M-SAT AR PAY REQ","code":"SG_21-302_30X45_H","facing":"SW","installed":"2019-12-11"}]}}]}
